{
"type": "FeatureCollection",
"name": "2",
"features": [
{ "type": "Feature", "properties": { "lat": -28.5, "lon": 117.0 }, "geometry": { "type": "Polygon", "coordinates": [ [ [ 116.75, -28.75 ], [ 116.75, -28.25 ], [ 117.25, -28.25 ], [ 117.25, -28.75 ], [ 116.75, -28.75 ] ] ] } },
{ "type": "Feature", "properties": { "lat": -31.0, "lon": 121.5 }, "geometry": { "type": "Polygon", "coordinates": [ [ [ 121.25, -31.25 ], [ 121.25, -30.75 ], [ 121.75, -30.75 ], [ 121.75, -31.25 ], [ 121.25, -31.25 ] ] ] } },
{ "type": "Feature", "properties": { "lat": -31.5, "lon": 115.5 }, "geometry": { "type": "Polygon", "coordinates": [ [ [ 115.25, -31.75 ], [ 115.25, -31.25 ], [ 115.75, -31.25 ], [ 115.75, -31.75 ], [ 115.25, -31.75 ] ] ] } },
{ "type": "Feature", "properties": { "lat": -31.5, "lon": 119.5 }, "geometry": { "type": "Polygon", "coordinates": [ [ [ 119.25, -31.75 ], [ 119.25, -31.25 ], [ 119.75, -31.25 ], [ 119.75, -31.75 ], [ 119.25, -31.75 ] ] ] } },
{ "type": "Feature", "properties": { "lat": -33.5, "lon": 116.5 }, "geometry": { "type": "Polygon", "coordinates": [ [ [ 116.25, -33.75 ], [ 116.25, -33.25 ], [ 116.75, -33.25 ], [ 116.75, -33.75 ], [ 116.25, -33.75 ] ] ] } },
{ "type": "Feature", "properties": { "lat": -34.5, "lon": 118.0 }, "geometry": { "type": "Polygon", "coordinates": [ [ [ 117.75, -34.75 ], [ 117.75, -34.25 ], [ 118.25, -34.25 ], [ 118.25, -34.75 ], [ 117.75, -34.75 ] ] ] } },
{ "type": "Feature", "properties": { "lat": -28.5, "lon": 114.5 }, "geometry": { "type": "Polygon", "coordinates": [ [ [ 114.25, -28.75 ], [ 114.25, -28.25 ], [ 114.75, -28.25 ], [ 114.75, -28.75 ], [ 114.25, -28.75 ] ] ] } },
{ "type": "Feature", "properties": { "lat": -31.5, "lon": 116.5 }, "geometry": { "type": "Polygon", "coordinates": [ [ [ 116.25, -31.75 ], [ 116.25, -31.25 ], [ 116.75, -31.25 ], [ 116.75, -31.75 ], [ 116.25, -31.75 ] ] ] } },
{ "type": "Feature", "properties": { "lat": -31.5, "lon": 117.0 }, "geometry": { "type": "Polygon", "coordinates": [ [ [ 116.75, -31.75 ], [ 116.75, -31.25 ], [ 117.25, -31.25 ], [ 117.25, -31.75 ], [ 116.75, -31.75 ] ] ] } },
{ "type": "Feature", "properties": { "lat": -34.0, "lon": 116.5 }, "geometry": { "type": "Polygon", "coordinates": [ [ [ 116.25, -34.25 ], [ 116.25, -33.75 ], [ 116.75, -33.75 ], [ 116.75, -34.25 ], [ 116.25, -34.25 ] ] ] } },
{ "type": "Feature", "properties": { "lat": -34.0, "lon": 117.0 }, "geometry": { "type": "Polygon", "coordinates": [ [ [ 116.75, -34.25 ], [ 116.75, -33.75 ], [ 117.25, -33.75 ], [ 117.25, -34.25 ], [ 116.75, -34.25 ] ] ] } },
{ "type": "Feature", "properties": { "lat": -35.0, "lon": 118.0 }, "geometry": { "type": "Polygon", "coordinates": [ [ [ 117.75, -35.25 ], [ 117.75, -34.75 ], [ 118.25, -34.75 ], [ 118.25, -35.25 ], [ 117.75, -35.25 ] ] ] } },
{ "type": "Feature", "properties": { "lat": -29.0, "lon": 115.0 }, "geometry": { "type": "Polygon", "coordinates": [ [ [ 114.75, -29.25 ], [ 114.75, -28.75 ], [ 115.25, -28.75 ], [ 115.25, -29.25 ], [ 114.75, -29.25 ] ] ] } },
{ "type": "Feature", "properties": { "lat": -29.0, "lon": 116.5 }, "geometry": { "type": "Polygon", "coordinates": [ [ [ 116.25, -29.25 ], [ 116.25, -28.75 ], [ 116.75, -28.75 ], [ 116.75, -29.25 ], [ 116.25, -29.25 ] ] ] } },
{ "type": "Feature", "properties": { "lat": -29.5, "lon": 115.5 }, "geometry": { "type": "Polygon", "coordinates": [ [ [ 115.25, -29.75 ], [ 115.25, -29.25 ], [ 115.75, -29.25 ], [ 115.75, -29.75 ], [ 115.25, -29.75 ] ] ] } },
{ "type": "Feature", "properties": { "lat": -30.5, "lon": 116.5 }, "geometry": { "type": "Polygon", "coordinates": [ [ [ 116.25, -30.75 ], [ 116.25, -30.25 ], [ 116.75, -30.25 ], [ 116.75, -30.75 ], [ 116.25, -30.75 ] ] ] } },
{ "type": "Feature", "properties": { "lat": -31.5, "lon": 116.0 }, "geometry": { "type": "Polygon", "coordinates": [ [ [ 115.75, -31.75 ], [ 115.75, -31.25 ], [ 116.25, -31.25 ], [ 116.25, -31.75 ], [ 115.75, -31.75 ] ] ] } },
{ "type": "Feature", "properties": { "lat": -31.5, "lon": 118.0 }, "geometry": { "type": "Polygon", "coordinates": [ [ [ 117.75, -31.75 ], [ 117.75, -31.25 ], [ 118.25, -31.25 ], [ 118.25, -31.75 ], [ 117.75, -31.75 ] ] ] } },
{ "type": "Feature", "properties": { "lat": -31.5, "lon": 120.0 }, "geometry": { "type": "Polygon", "coordinates": [ [ [ 119.75, -31.75 ], [ 119.75, -31.25 ], [ 120.25, -31.25 ], [ 120.25, -31.75 ], [ 119.75, -31.75 ] ] ] } },
{ "type": "Feature", "properties": { "lat": -34.0, "lon": 115.5 }, "geometry": { "type": "Polygon", "coordinates": [ [ [ 115.25, -34.25 ], [ 115.25, -33.75 ], [ 115.75, -33.75 ], [ 115.75, -34.25 ], [ 115.25, -34.25 ] ] ] } },
{ "type": "Feature", "properties": { "lat": -32.0, "lon": 116.5 }, "geometry": { "type": "Polygon", "coordinates": [ [ [ 116.25, -32.25 ], [ 116.25, -31.75 ], [ 116.75, -31.75 ], [ 116.75, -32.25 ], [ 116.25, -32.25 ] ] ] } },
{ "type": "Feature", "properties": { "lat": -32.0, "lon": 120.0 }, "geometry": { "type": "Polygon", "coordinates": [ [ [ 119.75, -32.25 ], [ 119.75, -31.75 ], [ 120.25, -31.75 ], [ 120.25, -32.25 ], [ 119.75, -32.25 ] ] ] } },
{ "type": "Feature", "properties": { "lat": -32.5, "lon": 119.0 }, "geometry": { "type": "Polygon", "coordinates": [ [ [ 118.75, -32.75 ], [ 118.75, -32.25 ], [ 119.25, -32.25 ], [ 119.25, -32.75 ], [ 118.75, -32.75 ] ] ] } },
{ "type": "Feature", "properties": { "lat": -31.5, "lon": 117.5 }, "geometry": { "type": "Polygon", "coordinates": [ [ [ 117.25, -31.75 ], [ 117.25, -31.25 ], [ 117.75, -31.25 ], [ 117.75, -31.75 ], [ 117.25, -31.75 ] ] ] } },
{ "type": "Feature", "properties": { "lat": -34.0, "lon": 115.0 }, "geometry": { "type": "Polygon", "coordinates": [ [ [ 114.75, -34.25 ], [ 114.75, -33.75 ], [ 115.25, -33.75 ], [ 115.25, -34.25 ], [ 114.75, -34.25 ] ] ] } },
{ "type": "Feature", "properties": { "lat": -32.0, "lon": 119.0 }, "geometry": { "type": "Polygon", "coordinates": [ [ [ 118.75, -32.25 ], [ 118.75, -31.75 ], [ 119.25, -31.75 ], [ 119.25, -32.25 ], [ 118.75, -32.25 ] ] ] } },
{ "type": "Feature", "properties": { "lat": -32.0, "lon": 119.5 }, "geometry": { "type": "Polygon", "coordinates": [ [ [ 119.25, -32.25 ], [ 119.25, -31.75 ], [ 119.75, -31.75 ], [ 119.75, -32.25 ], [ 119.25, -32.25 ] ] ] } },
{ "type": "Feature", "properties": { "lat": -32.5, "lon": 115.5 }, "geometry": { "type": "Polygon", "coordinates": [ [ [ 115.25, -32.75 ], [ 115.25, -32.25 ], [ 115.75, -32.25 ], [ 115.75, -32.75 ], [ 115.25, -32.75 ] ] ] } },
{ "type": "Feature", "properties": { "lat": -29.0, "lon": 117.0 }, "geometry": { "type": "Polygon", "coordinates": [ [ [ 116.75, -29.25 ], [ 116.75, -28.75 ], [ 117.25, -28.75 ], [ 117.25, -29.25 ], [ 116.75, -29.25 ] ] ] } },
{ "type": "Feature", "properties": { "lat": -29.5, "lon": 116.5 }, "geometry": { "type": "Polygon", "coordinates": [ [ [ 116.25, -29.75 ], [ 116.25, -29.25 ], [ 116.75, -29.25 ], [ 116.75, -29.75 ], [ 116.25, -29.75 ] ] ] } },
{ "type": "Feature", "properties": { "lat": -31.0, "lon": 116.0 }, "geometry": { "type": "Polygon", "coordinates": [ [ [ 115.75, -31.25 ], [ 115.75, -30.75 ], [ 116.25, -30.75 ], [ 116.25, -31.25 ], [ 115.75, -31.25 ] ] ] } },
{ "type": "Feature", "properties": { "lat": -31.0, "lon": 120.0 }, "geometry": { "type": "Polygon", "coordinates": [ [ [ 119.75, -31.25 ], [ 119.75, -30.75 ], [ 120.25, -30.75 ], [ 120.25, -31.25 ], [ 119.75, -31.25 ] ] ] } },
{ "type": "Feature", "properties": { "lat": -31.0, "lon": 121.0 }, "geometry": { "type": "Polygon", "coordinates": [ [ [ 120.75, -31.25 ], [ 120.75, -30.75 ], [ 121.25, -30.75 ], [ 121.25, -31.25 ], [ 120.75, -31.25 ] ] ] } },
{ "type": "Feature", "properties": { "lat": -31.5, "lon": 121.5 }, "geometry": { "type": "Polygon", "coordinates": [ [ [ 121.25, -31.75 ], [ 121.25, -31.25 ], [ 121.75, -31.25 ], [ 121.75, -31.75 ], [ 121.25, -31.75 ] ] ] } },
{ "type": "Feature", "properties": { "lat": -31.5, "lon": 122.0 }, "geometry": { "type": "Polygon", "coordinates": [ [ [ 121.75, -31.75 ], [ 121.75, -31.25 ], [ 122.25, -31.25 ], [ 122.25, -31.75 ], [ 121.75, -31.75 ] ] ] } },
{ "type": "Feature", "properties": { "lat": -33.5, "lon": 115.5 }, "geometry": { "type": "Polygon", "coordinates": [ [ [ 115.25, -33.75 ], [ 115.25, -33.25 ], [ 115.75, -33.25 ], [ 115.75, -33.75 ], [ 115.25, -33.75 ] ] ] } },
{ "type": "Feature", "properties": { "lat": -33.5, "lon": 117.0 }, "geometry": { "type": "Polygon", "coordinates": [ [ [ 116.75, -33.75 ], [ 116.75, -33.25 ], [ 117.25, -33.25 ], [ 117.25, -33.75 ], [ 116.75, -33.75 ] ] ] } },
{ "type": "Feature", "properties": { "lat": -33.5, "lon": 117.5 }, "geometry": { "type": "Polygon", "coordinates": [ [ [ 117.25, -33.75 ], [ 117.25, -33.25 ], [ 117.75, -33.25 ], [ 117.75, -33.75 ], [ 117.25, -33.75 ] ] ] } },
{ "type": "Feature", "properties": { "lat": -34.5, "lon": 116.0 }, "geometry": { "type": "Polygon", "coordinates": [ [ [ 115.75, -34.75 ], [ 115.75, -34.25 ], [ 116.25, -34.25 ], [ 116.25, -34.75 ], [ 115.75, -34.75 ] ] ] } },
{ "type": "Feature", "properties": { "lat": -34.5, "lon": 117.5 }, "geometry": { "type": "Polygon", "coordinates": [ [ [ 117.25, -34.75 ], [ 117.25, -34.25 ], [ 117.75, -34.25 ], [ 117.75, -34.75 ], [ 117.25, -34.75 ] ] ] } },
{ "type": "Feature", "properties": { "lat": -32.5, "lon": 118.0 }, "geometry": { "type": "Polygon", "coordinates": [ [ [ 117.75, -32.75 ], [ 117.75, -32.25 ], [ 118.25, -32.25 ], [ 118.25, -32.75 ], [ 117.75, -32.75 ] ] ] } },
{ "type": "Feature", "properties": { "lat": -29.0, "lon": 114.5 }, "geometry": { "type": "Polygon", "coordinates": [ [ [ 114.25, -29.25 ], [ 114.25, -28.75 ], [ 114.75, -28.75 ], [ 114.75, -29.25 ], [ 114.25, -29.25 ] ] ] } },
{ "type": "Feature", "properties": { "lat": -29.0, "lon": 115.5 }, "geometry": { "type": "Polygon", "coordinates": [ [ [ 115.25, -29.25 ], [ 115.25, -28.75 ], [ 115.75, -28.75 ], [ 115.75, -29.25 ], [ 115.25, -29.25 ] ] ] } },
{ "type": "Feature", "properties": { "lat": -29.5, "lon": 116.0 }, "geometry": { "type": "Polygon", "coordinates": [ [ [ 115.75, -29.75 ], [ 115.75, -29.25 ], [ 116.25, -29.25 ], [ 116.25, -29.75 ], [ 115.75, -29.75 ] ] ] } },
{ "type": "Feature", "properties": { "lat": -30.0, "lon": 115.5 }, "geometry": { "type": "Polygon", "coordinates": [ [ [ 115.25, -30.25 ], [ 115.25, -29.75 ], [ 115.75, -29.75 ], [ 115.75, -30.25 ], [ 115.25, -30.25 ] ] ] } },
{ "type": "Feature", "properties": { "lat": -30.0, "lon": 116.0 }, "geometry": { "type": "Polygon", "coordinates": [ [ [ 115.75, -30.25 ], [ 115.75, -29.75 ], [ 116.25, -29.75 ], [ 116.25, -30.25 ], [ 115.75, -30.25 ] ] ] } },
{ "type": "Feature", "properties": { "lat": -31.0, "lon": 115.5 }, "geometry": { "type": "Polygon", "coordinates": [ [ [ 115.25, -31.25 ], [ 115.25, -30.75 ], [ 115.75, -30.75 ], [ 115.75, -31.25 ], [ 115.25, -31.25 ] ] ] } },
{ "type": "Feature", "properties": { "lat": -31.0, "lon": 119.0 }, "geometry": { "type": "Polygon", "coordinates": [ [ [ 118.75, -31.25 ], [ 118.75, -30.75 ], [ 119.25, -30.75 ], [ 119.25, -31.25 ], [ 118.75, -31.25 ] ] ] } },
{ "type": "Feature", "properties": { "lat": -31.0, "lon": 119.5 }, "geometry": { "type": "Polygon", "coordinates": [ [ [ 119.25, -31.25 ], [ 119.25, -30.75 ], [ 119.75, -30.75 ], [ 119.75, -31.25 ], [ 119.25, -31.25 ] ] ] } },
{ "type": "Feature", "properties": { "lat": -31.0, "lon": 120.5 }, "geometry": { "type": "Polygon", "coordinates": [ [ [ 120.25, -31.25 ], [ 120.25, -30.75 ], [ 120.75, -30.75 ], [ 120.75, -31.25 ], [ 120.25, -31.25 ] ] ] } },
{ "type": "Feature", "properties": { "lat": -35.0, "lon": 117.5 }, "geometry": { "type": "Polygon", "coordinates": [ [ [ 117.25, -35.25 ], [ 117.25, -34.75 ], [ 117.75, -34.75 ], [ 117.75, -35.25 ], [ 117.25, -35.25 ] ] ] } },
{ "type": "Feature", "properties": { "lat": -32.0, "lon": 118.0 }, "geometry": { "type": "Polygon", "coordinates": [ [ [ 117.75, -32.25 ], [ 117.75, -31.75 ], [ 118.25, -31.75 ], [ 118.25, -32.25 ], [ 117.75, -32.25 ] ] ] } },
{ "type": "Feature", "properties": { "lat": -33.0, "lon": 116.5 }, "geometry": { "type": "Polygon", "coordinates": [ [ [ 116.25, -33.25 ], [ 116.25, -32.75 ], [ 116.75, -32.75 ], [ 116.75, -33.25 ], [ 116.25, -33.25 ] ] ] } },
{ "type": "Feature", "properties": { "lat": -30.5, "lon": 115.5 }, "geometry": { "type": "Polygon", "coordinates": [ [ [ 115.25, -30.75 ], [ 115.25, -30.25 ], [ 115.75, -30.25 ], [ 115.75, -30.75 ], [ 115.25, -30.75 ] ] ] } },
{ "type": "Feature", "properties": { "lat": -30.5, "lon": 121.5 }, "geometry": { "type": "Polygon", "coordinates": [ [ [ 121.25, -30.75 ], [ 121.25, -30.25 ], [ 121.75, -30.25 ], [ 121.75, -30.75 ], [ 121.25, -30.75 ] ] ] } },
{ "type": "Feature", "properties": { "lat": -31.0, "lon": 116.5 }, "geometry": { "type": "Polygon", "coordinates": [ [ [ 116.25, -31.25 ], [ 116.25, -30.75 ], [ 116.75, -30.75 ], [ 116.75, -31.25 ], [ 116.25, -31.25 ] ] ] } },
{ "type": "Feature", "properties": { "lat": -31.5, "lon": 119.0 }, "geometry": { "type": "Polygon", "coordinates": [ [ [ 118.75, -31.75 ], [ 118.75, -31.25 ], [ 119.25, -31.25 ], [ 119.25, -31.75 ], [ 118.75, -31.75 ] ] ] } },
{ "type": "Feature", "properties": { "lat": -34.0, "lon": 116.0 }, "geometry": { "type": "Polygon", "coordinates": [ [ [ 115.75, -34.25 ], [ 115.75, -33.75 ], [ 116.25, -33.75 ], [ 116.25, -34.25 ], [ 115.75, -34.25 ] ] ] } },
{ "type": "Feature", "properties": { "lat": -34.0, "lon": 117.5 }, "geometry": { "type": "Polygon", "coordinates": [ [ [ 117.25, -34.25 ], [ 117.25, -33.75 ], [ 117.75, -33.75 ], [ 117.75, -34.25 ], [ 117.25, -34.25 ] ] ] } },
{ "type": "Feature", "properties": { "lat": -34.5, "lon": 115.5 }, "geometry": { "type": "Polygon", "coordinates": [ [ [ 115.25, -34.75 ], [ 115.25, -34.25 ], [ 115.75, -34.25 ], [ 115.75, -34.75 ], [ 115.25, -34.75 ] ] ] } },
{ "type": "Feature", "properties": { "lat": -32.5, "lon": 116.0 }, "geometry": { "type": "Polygon", "coordinates": [ [ [ 115.75, -32.75 ], [ 115.75, -32.25 ], [ 116.25, -32.25 ], [ 116.25, -32.75 ], [ 115.75, -32.75 ] ] ] } },
{ "type": "Feature", "properties": { "lat": -33.0, "lon": 116.0 }, "geometry": { "type": "Polygon", "coordinates": [ [ [ 115.75, -33.25 ], [ 115.75, -32.75 ], [ 116.25, -32.75 ], [ 116.25, -33.25 ], [ 115.75, -33.25 ] ] ] } },
{ "type": "Feature", "properties": { "lat": -33.0, "lon": 117.0 }, "geometry": { "type": "Polygon", "coordinates": [ [ [ 116.75, -33.25 ], [ 116.75, -32.75 ], [ 117.25, -32.75 ], [ 117.25, -33.25 ], [ 116.75, -33.25 ] ] ] } },
{ "type": "Feature", "properties": { "lat": -30.5, "lon": 116.0 }, "geometry": { "type": "Polygon", "coordinates": [ [ [ 115.75, -30.75 ], [ 115.75, -30.25 ], [ 116.25, -30.25 ], [ 116.25, -30.75 ], [ 115.75, -30.75 ] ] ] } },
{ "type": "Feature", "properties": { "lat": -30.5, "lon": 121.0 }, "geometry": { "type": "Polygon", "coordinates": [ [ [ 120.75, -30.75 ], [ 120.75, -30.25 ], [ 121.25, -30.25 ], [ 121.25, -30.75 ], [ 120.75, -30.75 ] ] ] } },
{ "type": "Feature", "properties": { "lat": -31.5, "lon": 118.5 }, "geometry": { "type": "Polygon", "coordinates": [ [ [ 118.25, -31.75 ], [ 118.25, -31.25 ], [ 118.75, -31.25 ], [ 118.75, -31.75 ], [ 118.25, -31.75 ] ] ] } },
{ "type": "Feature", "properties": { "lat": -32.0, "lon": 116.0 }, "geometry": { "type": "Polygon", "coordinates": [ [ [ 115.75, -32.25 ], [ 115.75, -31.75 ], [ 116.25, -31.75 ], [ 116.25, -32.25 ], [ 115.75, -32.25 ] ] ] } },
{ "type": "Feature", "properties": { "lat": -33.5, "lon": 116.0 }, "geometry": { "type": "Polygon", "coordinates": [ [ [ 115.75, -33.75 ], [ 115.75, -33.25 ], [ 116.25, -33.25 ], [ 116.25, -33.75 ], [ 115.75, -33.75 ] ] ] } },
{ "type": "Feature", "properties": { "lat": -32.5, "lon": 116.5 }, "geometry": { "type": "Polygon", "coordinates": [ [ [ 116.25, -32.75 ], [ 116.25, -32.25 ], [ 116.75, -32.25 ], [ 116.75, -32.75 ], [ 116.25, -32.75 ] ] ] } },
{ "type": "Feature", "properties": { "lat": -32.5, "lon": 117.5 }, "geometry": { "type": "Polygon", "coordinates": [ [ [ 117.25, -32.75 ], [ 117.25, -32.25 ], [ 117.75, -32.25 ], [ 117.75, -32.75 ], [ 117.25, -32.75 ] ] ] } },
{ "type": "Feature", "properties": { "lat": -32.5, "lon": 118.5 }, "geometry": { "type": "Polygon", "coordinates": [ [ [ 118.25, -32.75 ], [ 118.25, -32.25 ], [ 118.75, -32.25 ], [ 118.75, -32.75 ], [ 118.25, -32.75 ] ] ] } },
{ "type": "Feature", "properties": { "lat": -33.0, "lon": 115.5 }, "geometry": { "type": "Polygon", "coordinates": [ [ [ 115.25, -33.25 ], [ 115.25, -32.75 ], [ 115.75, -32.75 ], [ 115.75, -33.25 ], [ 115.25, -33.25 ] ] ] } },
{ "type": "Feature", "properties": { "lat": -33.0, "lon": 117.5 }, "geometry": { "type": "Polygon", "coordinates": [ [ [ 117.25, -33.25 ], [ 117.25, -32.75 ], [ 117.75, -32.75 ], [ 117.75, -33.25 ], [ 117.25, -33.25 ] ] ] } }
]
}
