{
"type": "FeatureCollection",
"name": "pointsfound",
"features": [
{ "type": "Feature", "properties": { "t2m": 303.56781094618481, "u10": -7.5459599816473357, "v10": -0.6088176754828406, "d2m": 285.07582496567511, "ssr": 1014502.9119374972, "longitude": 114.5, "latitude": -28.5, "time": "2000-01-01T00:00:00" }, "geometry": { "type": "Point", "coordinates": [ 114.5, -28.5 ] } },
{ "type": "Feature", "properties": { "t2m": 303.61075293247416, "u10": -7.7304357559217838, "v10": 0.015992865042111282, "d2m": 285.8298480368133, "ssr": 1090667.5185936857, "longitude": 114.5, "latitude": -28.75, "time": "2000-01-01T00:00:00" }, "geometry": { "type": "Point", "coordinates": [ 114.5, -28.75 ] } },
{ "type": "Feature", "properties": { "t2m": 302.83869180398023, "u10": -8.4105512610781794, "v10": -1.0920319879020282, "d2m": 287.03434930214371, "ssr": 1159052.8423847528, "longitude": 114.5, "latitude": -29.0, "time": "2000-01-01T00:00:00" }, "geometry": { "type": "Point", "coordinates": [ 114.5, -29.0 ] } },
{ "type": "Feature", "properties": { "t2m": 303.94623720035975, "u10": -7.4200126658776338, "v10": -1.1243379234407223, "d2m": 284.83386890434139, "ssr": 1122568.6087925169, "longitude": 114.75, "latitude": -29.0, "time": "2000-01-01T00:00:00" }, "geometry": { "type": "Point", "coordinates": [ 114.75, -29.0 ] } },
{ "type": "Feature", "properties": { "t2m": 304.83459954172065, "u10": -6.1605395081806051, "v10": -1.0177970721960929, "d2m": 281.54678583109489, "ssr": 1049298.6190163735, "longitude": 115.0, "latitude": -29.0, "time": "2000-01-01T00:00:00" }, "geometry": { "type": "Point", "coordinates": [ 115.0, -29.0 ] } },
{ "type": "Feature", "properties": { "t2m": 295.0572460384642, "u10": -5.3063203606366791, "v10": 0.17820990306619133, "d2m": 286.21785757517029, "ssr": 1355163.1360078128, "longitude": 115.0, "latitude": -34.0, "time": "2000-01-01T00:00:00" }, "geometry": { "type": "Point", "coordinates": [ 115.0, -34.0 ] } },
{ "type": "Feature", "properties": { "t2m": 303.92118770835759, "u10": -6.2131410341785394, "v10": -1.1511449763345318, "d2m": 281.76674588685285, "ssr": 1040795.6819312408, "longitude": 115.25, "latitude": -29.0, "time": "2000-01-01T00:00:00" }, "geometry": { "type": "Point", "coordinates": [ 115.25, -29.0 ] } },
{ "type": "Feature", "properties": { "t2m": 296.75882224517972, "u10": -4.4172804846152474, "v10": -0.3166895349733746, "d2m": 285.50518699451459, "ssr": 1313673.6273938322, "longitude": 115.25, "latitude": -34.0, "time": "2000-01-01T00:00:00" }, "geometry": { "type": "Point", "coordinates": [ 115.25, -34.0 ] } },
{ "type": "Feature", "properties": { "t2m": 303.44256348617421, "u10": -6.4020620078330932, "v10": -1.4123419019665251, "d2m": 281.66556426120417, "ssr": 1052072.6268597501, "longitude": 115.5, "latitude": -29.0, "time": "2000-01-01T00:00:00" }, "geometry": { "type": "Point", "coordinates": [ 115.5, -29.0 ] } },
{ "type": "Feature", "properties": { "t2m": 303.61969917961778, "u10": -5.7145378370431867, "v10": -2.9485922408810112, "d2m": 281.8160169393426, "ssr": 1087652.292676972, "longitude": 115.5, "latitude": -29.25, "time": "2000-01-01T00:00:00" }, "geometry": { "type": "Point", "coordinates": [ 115.5, -29.25 ] } },
{ "type": "Feature", "properties": { "t2m": 303.2412729254429, "u10": -5.5582149921760848, "v10": -3.5850879070263417, "d2m": 281.7632265259607, "ssr": 1098084.9743488014, "longitude": 115.5, "latitude": -29.5, "time": "2000-01-01T00:00:00" }, "geometry": { "type": "Point", "coordinates": [ 115.5, -29.5 ] } },
{ "type": "Feature", "properties": { "t2m": 303.02030062099561, "u10": -5.604889585667209, "v10": -3.3390129086677796, "d2m": 281.54238662997977, "ssr": 1127151.7521859217, "longitude": 115.5, "latitude": -29.75, "time": "2000-01-01T00:00:00" }, "geometry": { "type": "Point", "coordinates": [ 115.5, -29.75 ] } },
{ "type": "Feature", "properties": { "t2m": 302.62040337367603, "u10": -5.7619532970976621, "v10": -2.8626721995546975, "d2m": 280.83147572977009, "ssr": 1155374.2667663621, "longitude": 115.5, "latitude": -30.0, "time": "2000-01-01T00:00:00" }, "geometry": { "type": "Point", "coordinates": [ 115.5, -30.0 ] } },
{ "type": "Feature", "properties": { "t2m": 302.21961150164208, "u10": -5.8841962800506096, "v10": -2.4488812805271714, "d2m": 280.58336078687518, "ssr": 1174551.1035966612, "longitude": 115.5, "latitude": -30.25, "time": "2000-01-01T00:00:00" }, "geometry": { "type": "Point", "coordinates": [ 115.5, -30.25 ] } },
{ "type": "Feature", "properties": { "t2m": 302.56314739195687, "u10": -6.167948173814116, "v10": -2.2722296755602711, "d2m": 279.9604339089687, "ssr": 1163455.0722231548, "longitude": 115.5, "latitude": -30.5, "time": "2000-01-01T00:00:00" }, "geometry": { "type": "Point", "coordinates": [ 115.5, -30.5 ] } },
{ "type": "Feature", "properties": { "t2m": 302.91473490470094, "u10": -6.3013041552173306, "v10": -2.0199684342262145, "d2m": 279.5583469270432, "ssr": 1121543.4319808343, "longitude": 115.5, "latitude": -30.75, "time": "2000-01-01T00:00:00" }, "geometry": { "type": "Point", "coordinates": [ 115.5, -30.75 ] } },
{ "type": "Feature", "properties": { "t2m": 303.13749645857695, "u10": -6.4057663406498495, "v10": -1.5065102672601647, "d2m": 279.03484199433933, "ssr": 1085421.0254986039, "longitude": 115.5, "latitude": -31.0, "time": "2000-01-01T00:00:00" }, "geometry": { "type": "Point", "coordinates": [ 115.5, -31.0 ] } },
{ "type": "Feature", "properties": { "t2m": 301.70430766616988, "u10": -6.6769235028363862, "v10": -0.96555768706969458, "d2m": 283.31790420005774, "ssr": 1104175.7307005632, "longitude": 115.5, "latitude": -31.25, "time": "2000-01-01T00:00:00" }, "geometry": { "type": "Point", "coordinates": [ 115.5, -31.25 ] } },
{ "type": "Feature", "properties": { "t2m": 299.73702791928901, "u10": -7.2896201507278224, "v10": -0.59988199118490415, "d2m": 285.25971157228872, "ssr": 1153866.6538080052, "longitude": 115.5, "latitude": -31.5, "time": "2000-01-01T00:00:00" }, "geometry": { "type": "Point", "coordinates": [ 115.5, -31.5 ] } },
{ "type": "Feature", "properties": { "t2m": 297.2374464673631, "u10": -7.3266634788953837, "v10": -0.41085790026701441, "d2m": 286.72376570341351, "ssr": 1318256.7707872372, "longitude": 115.5, "latitude": -32.5, "time": "2000-01-01T00:00:00" }, "geometry": { "type": "Point", "coordinates": [ 115.5, -32.5 ] } },
{ "type": "Feature", "properties": { "t2m": 296.68456839388767, "u10": -7.3888962702168826, "v10": -0.17509330686761004, "d2m": 286.67361481070071, "ssr": 1345936.5447026691, "longitude": 115.5, "latitude": -32.75, "time": "2000-01-01T00:00:00" }, "geometry": { "type": "Point", "coordinates": [ 115.5, -32.75 ] } },
{ "type": "Feature", "properties": { "t2m": 295.93666213268153, "u10": -7.2873975510377704, "v10": 0.19264447000901197, "d2m": 286.66745592913952, "ssr": 1370601.0927013871, "longitude": 115.5, "latitude": -33.0, "time": "2000-01-01T00:00:00" }, "geometry": { "type": "Point", "coordinates": [ 115.5, -33.0 ] } },
{ "type": "Feature", "properties": { "t2m": 295.368575439062, "u10": -7.4785411243823781, "v10": 0.42359754109414272, "d2m": 286.75895931233481, "ssr": 1390984.0198983718, "longitude": 115.5, "latitude": -33.25, "time": "2000-01-01T00:00:00" }, "geometry": { "type": "Point", "coordinates": [ 115.5, -33.25 ] } },
{ "type": "Feature", "properties": { "t2m": 296.46001759058299, "u10": -6.8784392080679115, "v10": 0.35967303034736553, "d2m": 286.52844117390049, "ssr": 1369636.2204080387, "longitude": 115.5, "latitude": -33.5, "time": "2000-01-01T00:00:00" }, "geometry": { "type": "Point", "coordinates": [ 115.5, -33.5 ] } },
{ "type": "Feature", "properties": { "t2m": 296.64162640759832, "u10": -5.6945344398327045, "v10": -0.20327508042264075, "d2m": 285.84304564015878, "ssr": 1364027.9002029514, "longitude": 115.5, "latitude": -33.75, "time": "2000-01-01T00:00:00" }, "geometry": { "type": "Point", "coordinates": [ 115.5, -33.75 ] } },
{ "type": "Feature", "properties": { "t2m": 296.4108132312931, "u10": -4.7610425700102006, "v10": -0.82946034160881388, "d2m": 285.58173309391833, "ssr": 1367827.0848580105, "longitude": 115.5, "latitude": -34.0, "time": "2000-01-01T00:00:00" }, "geometry": { "type": "Point", "coordinates": [ 115.5, -34.0 ] } },
{ "type": "Feature", "properties": { "t2m": 295.19412361976151, "u10": -5.2248250386680475, "v10": -0.74422766061311074, "d2m": 286.33311664438742, "ssr": 1397135.0807684679, "longitude": 115.5, "latitude": -34.25, "time": "2000-01-01T00:00:00" }, "geometry": { "type": "Point", "coordinates": [ 115.5, -34.25 ] } },
{ "type": "Feature", "properties": { "t2m": 293.40487419103857, "u10": -6.9036286712218509, "v10": 0.20982847827427464, "d2m": 287.41356043827039, "ssr": 1430362.870370653, "longitude": 115.5, "latitude": -34.5, "time": "2000-01-01T00:00:00" }, "geometry": { "type": "Point", "coordinates": [ 115.5, -34.5 ] } },
{ "type": "Feature", "properties": { "t2m": 302.73759921125736, "u10": -5.5626601915561924, "v10": -3.3761303665207469, "d2m": 281.35674034292003, "ssr": 1065158.7073382877, "longitude": 115.75, "latitude": -29.5, "time": "2000-01-01T00:00:00" }, "geometry": { "type": "Point", "coordinates": [ 115.75, -29.5 ] } },
{ "type": "Feature", "properties": { "t2m": 301.84118524746719, "u10": -5.8597476834600197, "v10": -2.5011206656535703, "d2m": 280.41531130427609, "ssr": 1094587.3122854135, "longitude": 115.75, "latitude": -30.0, "time": "2000-01-01T00:00:00" }, "geometry": { "type": "Point", "coordinates": [ 115.75, -30.0 ] } },
{ "type": "Feature", "properties": { "t2m": 301.79019163874858, "u10": -6.0745989868318659, "v10": -2.052961730095519, "d2m": 279.76334969900961, "ssr": 1143011.8405078358, "longitude": 115.75, "latitude": -30.5, "time": "2000-01-01T00:00:00" }, "geometry": { "type": "Point", "coordinates": [ 115.75, -30.5 ] } },
{ "type": "Feature", "properties": { "t2m": 302.53183552695424, "u10": -6.764345757311828, "v10": -1.5855567052803732, "d2m": 278.64771229620538, "ssr": 1102004.7680405295, "longitude": 115.75, "latitude": -31.0, "time": "2000-01-01T00:00:00" }, "geometry": { "type": "Point", "coordinates": [ 115.75, -31.0 ] } },
{ "type": "Feature", "properties": { "t2m": 301.14964034326579, "u10": -6.824355948943273, "v10": -0.88444916805765461, "d2m": 281.45088324678443, "ssr": 1132337.9407626693, "longitude": 115.75, "latitude": -31.5, "time": "2000-01-01T00:00:00" }, "geometry": { "type": "Point", "coordinates": [ 115.75, -31.5 ] } },
{ "type": "Feature", "properties": { "t2m": 299.7298709215741, "u10": -7.1029217767633224, "v10": -0.89269749202498072, "d2m": 284.49952961958934, "ssr": 1248122.615964476, "longitude": 115.75, "latitude": -32.5, "time": "2000-01-01T00:00:00" }, "geometry": { "type": "Point", "coordinates": [ 115.75, -32.5 ] } },
{ "type": "Feature", "properties": { "t2m": 298.19827341058732, "u10": -6.3235301521178666, "v10": -0.28575832009590185, "d2m": 285.13037505950308, "ssr": 1290818.2149451422, "longitude": 115.75, "latitude": -33.0, "time": "2000-01-01T00:00:00" }, "geometry": { "type": "Point", "coordinates": [ 115.75, -33.0 ] } },
{ "type": "Feature", "properties": { "t2m": 296.44391434572447, "u10": -6.1309048456465565, "v10": 0.098476104715372381, "d2m": 285.49990795317643, "ssr": 1339845.7883509072, "longitude": 115.75, "latitude": -33.5, "time": "2000-01-01T00:00:00" }, "geometry": { "type": "Point", "coordinates": [ 115.75, -33.5 ] } },
{ "type": "Feature", "properties": { "t2m": 295.55734125379223, "u10": -5.3255828912838101, "v10": -0.96555768706969458, "d2m": 285.43743929734114, "ssr": 1375425.4541681292, "longitude": 115.75, "latitude": -34.0, "time": "2000-01-01T00:00:00" }, "geometry": { "type": "Point", "coordinates": [ 115.75, -34.0 ] } },
{ "type": "Feature", "properties": { "t2m": 294.32723227154526, "u10": -5.662677177608602, "v10": -0.57376229862170469, "d2m": 287.33701433886665, "ssr": 1432654.4420673554, "longitude": 115.75, "latitude": -34.5, "time": "2000-01-01T00:00:00" }, "geometry": { "type": "Point", "coordinates": [ 115.75, -34.5 ] } },
{ "type": "Feature", "properties": { "t2m": 302.46026554980534, "u10": -5.2863169634261968, "v10": -2.9582152855095583, "d2m": 280.76724739348879, "ssr": 989235.31875543634, "longitude": 116.0, "latitude": -29.5, "time": "2000-01-01T00:00:00" }, "geometry": { "type": "Point", "coordinates": [ 116.0, -29.5 ] } },
{ "type": "Feature", "properties": { "t2m": 301.90738747632992, "u10": -5.3537358206911545, "v10": -2.4908102606944125, "d2m": 280.64055040137225, "ssr": 983988.82566035446, "longitude": 116.0, "latitude": -29.75, "time": "2000-01-01T00:00:00" }, "geometry": { "type": "Point", "coordinates": [ 116.0, -29.75 ] } },
{ "type": "Feature", "properties": { "t2m": 301.69267754488317, "u10": -5.5959991869069956, "v10": -2.1216977631565697, "d2m": 280.12672371112171, "ssr": 1020533.3637709246, "longitude": 116.0, "latitude": -30.0, "time": "2000-01-01T00:00:00" }, "geometry": { "type": "Point", "coordinates": [ 116.0, -30.0 ] } },
{ "type": "Feature", "properties": { "t2m": 301.6765743000247, "u10": -5.6448963800881735, "v10": -1.8605008375245764, "d2m": 279.663927753807, "ssr": 1089943.8643736744, "longitude": 116.0, "latitude": -30.25, "time": "2000-01-01T00:00:00" }, "geometry": { "type": "Point", "coordinates": [ 116.0, -30.25 ] } },
{ "type": "Feature", "properties": { "t2m": 301.62021294301991, "u10": -5.9575420698223773, "v10": -1.823383379671609, "d2m": 279.15362042444866, "ssr": 1122086.1726458427, "longitude": 116.0, "latitude": -30.5, "time": "2000-01-01T00:00:00" }, "geometry": { "type": "Point", "coordinates": [ 116.0, -30.5 ] } },
{ "type": "Feature", "properties": { "t2m": 301.72398940988586, "u10": -6.4124341397200109, "v10": -1.6109890375129621, "d2m": 278.75153344252311, "ssr": 1125101.3985625564, "longitude": 116.0, "latitude": -30.75, "time": "2000-01-01T00:00:00" }, "geometry": { "type": "Point", "coordinates": [ 116.0, -30.75 ] } },
{ "type": "Feature", "properties": { "t2m": 301.58711182858855, "u10": -6.7769404888887976, "v10": -1.3312333829544851, "d2m": 278.89758691954643, "ssr": 1126789.9250759161, "longitude": 116.0, "latitude": -31.0, "time": "2000-01-01T00:00:00" }, "geometry": { "type": "Point", "coordinates": [ 116.0, -31.0 ] } },
{ "type": "Feature", "properties": { "t2m": 301.46991599100716, "u10": -6.4161384725367672, "v10": -0.95387256144931587, "d2m": 279.54426948347469, "ssr": 1123412.8720491966, "longitude": 116.0, "latitude": -31.25, "time": "2000-01-01T00:00:00" }, "geometry": { "type": "Point", "coordinates": [ 116.0, -31.25 ] } },
{ "type": "Feature", "properties": { "t2m": 301.20242320141313, "u10": -6.4961520613786945, "v10": -0.82533617962515071, "d2m": 280.29829255461289, "ssr": 1144278.2353928555, "longitude": 116.0, "latitude": -31.5, "time": "2000-01-01T00:00:00" }, "geometry": { "type": "Point", "coordinates": [ 116.0, -31.5 ] } },
{ "type": "Feature", "properties": { "t2m": 301.0789649908312, "u10": -7.145892037437692, "v10": -0.87070196144544443, "d2m": 281.08750923467232, "ssr": 1184561.653640151, "longitude": 116.0, "latitude": -31.75, "time": "2000-01-01T00:00:00" }, "geometry": { "type": "Point", "coordinates": [ 116.0, -31.75 ] } },
{ "type": "Feature", "properties": { "t2m": 300.64507200436589, "u10": -7.1733041002816851, "v10": -1.0645375746776078, "d2m": 281.6638045807581, "ssr": 1208984.9835655321, "longitude": 116.0, "latitude": -32.0, "time": "2000-01-01T00:00:00" }, "geometry": { "type": "Point", "coordinates": [ 116.0, -32.0 ] } },
{ "type": "Feature", "properties": { "t2m": 300.28006512090644, "u10": -6.9147416696721198, "v10": -1.1456460936896478, "d2m": 282.44246317814117, "ssr": 1226955.7300291457, "longitude": 116.0, "latitude": -32.25, "time": "2000-01-01T00:00:00" }, "geometry": { "type": "Point", "coordinates": [ 116.0, -32.25 ] } },
{ "type": "Feature", "properties": { "t2m": 299.65293319613903, "u10": -6.6220993771483982, "v10": -1.050103007734787, "d2m": 283.38037285589303, "ssr": 1248182.9204828101, "longitude": 116.0, "latitude": -32.5, "time": "2000-01-01T00:00:00" }, "geometry": { "type": "Point", "coordinates": [ 116.0, -32.5 ] } },
{ "type": "Feature", "properties": { "t2m": 299.0383260173727, "u10": -6.3968759418896362, "v10": -0.80677745069866702, "d2m": 283.95842788242481, "ssr": 1260907.1738513422, "longitude": 116.0, "latitude": -32.75, "time": "2000-01-01T00:00:00" }, "geometry": { "type": "Point", "coordinates": [ 116.0, -32.75 ] } },
{ "type": "Feature", "properties": { "t2m": 298.17322391858517, "u10": -5.9034588106977406, "v10": -0.56413925399315767, "d2m": 284.47225457267535, "ssr": 1299622.6746219462, "longitude": 116.0, "latitude": -33.0, "time": "2000-01-01T00:00:00" }, "geometry": { "type": "Point", "coordinates": [ 116.0, -33.0 ] } },
{ "type": "Feature", "properties": { "t2m": 297.37164017451732, "u10": -5.767139363041121, "v10": -0.35793115481000515, "d2m": 284.88841899816936, "ssr": 1324166.613583996, "longitude": 116.0, "latitude": -33.25, "time": "2000-01-01T00:00:00" }, "geometry": { "type": "Point", "coordinates": [ 116.0, -33.25 ] } },
{ "type": "Feature", "properties": { "t2m": 296.48148858372764, "u10": -5.6426737803981215, "v10": -0.26513751017758647, "d2m": 284.98608126292589, "ssr": 1338217.5663558817, "longitude": 116.0, "latitude": -33.5, "time": "2000-01-01T00:00:00" }, "geometry": { "type": "Point", "coordinates": [ 116.0, -33.5 ] } },
{ "type": "Feature", "properties": { "t2m": 295.78189205709697, "u10": -5.5834044553300259, "v10": -0.47890657299745454, "d2m": 285.01335630983988, "ssr": 1330136.7608990893, "longitude": 116.0, "latitude": -33.75, "time": "2000-01-01T00:00:00" }, "geometry": { "type": "Point", "coordinates": [ 116.0, -33.75 ] } },
{ "type": "Feature", "properties": { "t2m": 294.99551693317323, "u10": -5.5226533971352278, "v10": -1.085158384595923, "d2m": 285.2553123711736, "ssr": 1358660.798071201, "longitude": 116.0, "latitude": -34.0, "time": "2000-01-01T00:00:00" }, "geometry": { "type": "Point", "coordinates": [ 116.0, -34.0 ] } },
{ "type": "Feature", "properties": { "t2m": 294.59830355999674, "u10": -5.319655958777, "v10": -1.3862222094033259, "d2m": 285.71810832848826, "ssr": 1373978.1457281066, "longitude": 116.0, "latitude": -34.25, "time": "2000-01-01T00:00:00" }, "geometry": { "type": "Point", "coordinates": [ 116.0, -34.25 ] } },
{ "type": "Feature", "properties": { "t2m": 294.43637648669733, "u10": -5.3292872241005664, "v10": -1.2569984672485504, "d2m": 286.28472543212069, "ssr": 1395265.6407001053, "longitude": 116.0, "latitude": -34.5, "time": "2000-01-01T00:00:00" }, "geometry": { "type": "Point", "coordinates": [ 116.0, -34.5 ] } },
{ "type": "Feature", "properties": { "t2m": 302.34843746051013, "u10": -5.1811139114303266, "v10": -2.7650670326080053, "d2m": 280.1126462675532, "ssr": 948590.07339813537, "longitude": 116.25, "latitude": -29.5, "time": "2000-01-01T00:00:00" }, "geometry": { "type": "Point", "coordinates": [ 116.25, -29.5 ] } },
{ "type": "Feature", "properties": { "t2m": 301.58890107801727, "u10": -5.8352990868694317, "v10": -1.6735388275985184, "d2m": 278.51133706163546, "ssr": 1096275.8387987732, "longitude": 116.25, "latitude": -30.5, "time": "2000-01-01T00:00:00" }, "geometry": { "type": "Point", "coordinates": [ 116.25, -30.5 ] } },
{ "type": "Feature", "properties": { "t2m": 300.94208740953394, "u10": -6.5257867239127432, "v10": -0.97999225401251511, "d2m": 279.03484199433933, "ssr": 1127212.056704256, "longitude": 116.25, "latitude": -31.0, "time": "2000-01-01T00:00:00" }, "geometry": { "type": "Point", "coordinates": [ 116.25, -31.0 ] } },
{ "type": "Feature", "properties": { "t2m": 300.30332536347981, "u10": -6.3227892855545154, "v10": -0.51327458952798011, "d2m": 280.49713644501804, "ssr": 1168761.8698365709, "longitude": 116.25, "latitude": -31.5, "time": "2000-01-01T00:00:00" }, "geometry": { "type": "Point", "coordinates": [ 116.25, -31.5 ] } },
{ "type": "Feature", "properties": { "t2m": 299.41138452326146, "u10": -6.4672582654079989, "v10": -0.76828527218447873, "d2m": 281.71835467458607, "ssr": 1227317.5571391513, "longitude": 116.25, "latitude": -32.0, "time": "2000-01-01T00:00:00" }, "geometry": { "type": "Point", "coordinates": [ 116.25, -32.0 ] } },
{ "type": "Feature", "properties": { "t2m": 298.33872949074203, "u10": -6.0568181893114375, "v10": -1.0432294044286818, "d2m": 283.01523916333485, "ssr": 1284486.2405200433, "longitude": 116.25, "latitude": -32.5, "time": "2000-01-01T00:00:00" }, "geometry": { "type": "Point", "coordinates": [ 116.25, -32.5 ] } },
{ "type": "Feature", "properties": { "t2m": 297.15693024307058, "u10": -5.7500994320840437, "v10": -0.69748715813159634, "d2m": 284.32356157498299, "ssr": 1333755.0319991456, "longitude": 116.25, "latitude": -33.0, "time": "2000-01-01T00:00:00" }, "geometry": { "type": "Point", "coordinates": [ 116.25, -33.0 ] } },
{ "type": "Feature", "properties": { "t2m": 295.88566852396292, "u10": -5.7100926376630792, "v10": -0.59713254986246211, "d2m": 284.81979146077288, "ssr": 1344127.4091526407, "longitude": 116.25, "latitude": -33.5, "time": "2000-01-01T00:00:00" }, "geometry": { "type": "Point", "coordinates": [ 116.25, -33.5 ] } },
{ "type": "Feature", "properties": { "t2m": 294.59472506113929, "u10": -5.4552345398702684, "v10": -0.96349560607786289, "d2m": 285.1673283488704, "ssr": 1338519.0889475532, "longitude": 116.25, "latitude": -34.0, "time": "2000-01-01T00:00:00" }, "geometry": { "type": "Point", "coordinates": [ 116.25, -34.0 ] } },
{ "type": "Feature", "properties": { "t2m": 303.05966410842751, "u10": -5.1929677764439468, "v10": -2.0715204590220027, "d2m": 280.19095204740302, "ssr": 1087531.6836403036, "longitude": 116.5, "latitude": -29.0, "time": "2000-01-01T00:00:00" }, "geometry": { "type": "Point", "coordinates": [ 116.5, -29.0 ] } },
{ "type": "Feature", "properties": { "t2m": 302.80380144012014, "u10": -5.0314588656333861, "v10": -2.5884154276411047, "d2m": 279.84869420064371, "ssr": 1050022.2732363848, "longitude": 116.5, "latitude": -29.25, "time": "2000-01-01T00:00:00" }, "geometry": { "type": "Point", "coordinates": [ 116.5, -29.25 ] } },
{ "type": "Feature", "properties": { "t2m": 302.23124162292879, "u10": -4.8462422247955885, "v10": -2.3560876358947529, "d2m": 279.45892498184065, "ssr": 981938.47203698906, "longitude": 116.5, "latitude": -29.5, "time": "2000-01-01T00:00:00" }, "geometry": { "type": "Point", "coordinates": [ 116.5, -29.5 ] } },
{ "type": "Feature", "properties": { "t2m": 301.31782978956574, "u10": -5.734541234253669, "v10": -1.669414665614855, "d2m": 278.12244768305544, "ssr": 1059369.4735781974, "longitude": 116.5, "latitude": -30.5, "time": "2000-01-01T00:00:00" }, "geometry": { "type": "Point", "coordinates": [ 116.5, -30.5 ] } },
{ "type": "Feature", "properties": { "t2m": 301.1397994714078, "u10": -5.9960671311166394, "v10": -1.1559564986488056, "d2m": 278.3767215075116, "ssr": 1088496.555933652, "longitude": 116.5, "latitude": -30.75, "time": "2000-01-01T00:00:00" }, "geometry": { "type": "Point", "coordinates": [ 116.5, -30.75 ] } },
{ "type": "Feature", "properties": { "t2m": 300.7354291005164, "u10": -6.1294231125198539, "v10": -0.73254253499273225, "d2m": 278.9723733385041, "ssr": 1094949.139395419, "longitude": 116.5, "latitude": -31.0, "time": "2000-01-01T00:00:00" }, "geometry": { "type": "Point", "coordinates": [ 116.5, -31.0 ] } },
{ "type": "Feature", "properties": { "t2m": 300.33463722848251, "u10": -6.0094027292569621, "v10": -0.46309728539341288, "d2m": 279.80646186993818, "ssr": 1118709.1196191232, "longitude": 116.5, "latitude": -31.25, "time": "2000-01-01T00:00:00" }, "geometry": { "type": "Point", "coordinates": [ 116.5, -31.25 ] } },
{ "type": "Feature", "properties": { "t2m": 300.01078308188363, "u10": -6.1827655050811412, "v10": -0.44178911514448715, "d2m": 280.39595481936942, "ssr": 1149765.9465612746, "longitude": 116.5, "latitude": -31.5, "time": "2000-01-01T00:00:00" }, "geometry": { "type": "Point", "coordinates": [ 116.5, -31.5 ] } },
{ "type": "Feature", "properties": { "t2m": 299.51873948898481, "u10": -6.1857289713345445, "v10": -0.47203296969134956, "d2m": 281.04087770285167, "ssr": 1197346.2115270169, "longitude": 116.5, "latitude": -31.75, "time": "2000-01-01T00:00:00" }, "geometry": { "type": "Point", "coordinates": [ 116.5, -31.75 ] } },
{ "type": "Feature", "properties": { "t2m": 298.83077308364085, "u10": -5.8834554134872583, "v10": -0.53870692176056878, "d2m": 281.84153230581052, "ssr": 1248062.3114461417, "longitude": 116.5, "latitude": -32.0, "time": "2000-01-01T00:00:00" }, "geometry": { "type": "Point", "coordinates": [ 116.5, -32.0 ] } },
{ "type": "Feature", "properties": { "t2m": 298.12044106043783, "u10": -5.6315607819478526, "v10": -0.79715440607012, "d2m": 282.5929158562796, "ssr": 1282797.7140066838, "longitude": 116.5, "latitude": -32.25, "time": "2000-01-01T00:00:00" }, "geometry": { "type": "Point", "coordinates": [ 116.5, -32.25 ] } },
{ "type": "Feature", "properties": { "t2m": 297.66149858197042, "u10": -5.5997035197237519, "v10": -1.1016550325305752, "d2m": 283.15161439790478, "ssr": 1300889.069506966, "longitude": 116.5, "latitude": -32.5, "time": "2000-01-01T00:00:00" }, "geometry": { "type": "Point", "coordinates": [ 116.5, -32.5 ] } },
{ "type": "Feature", "properties": { "t2m": 297.31706806694126, "u10": -5.5804409890766209, "v10": -0.99167737963289382, "d2m": 283.92499395394964, "ssr": 1289793.0381334596, "longitude": 116.5, "latitude": -32.75, "time": "2000-01-01T00:00:00" }, "geometry": { "type": "Point", "coordinates": [ 116.5, -32.75 ] } },
{ "type": "Feature", "properties": { "t2m": 296.84470621775841, "u10": -5.5426567943457101, "v10": -0.73872877796822667, "d2m": 284.04641190472802, "ssr": 1316327.0262005404, "longitude": 116.5, "latitude": -33.0, "time": "2000-01-01T00:00:00" }, "geometry": { "type": "Point", "coordinates": [ 116.5, -33.0 ] } },
{ "type": "Feature", "properties": { "t2m": 296.11021932726766, "u10": -5.4515302070535121, "v10": -0.76622319119264704, "d2m": 284.4960102586972, "ssr": 1350278.4700227366, "longitude": 116.5, "latitude": -33.25, "time": "2000-01-01T00:00:00" }, "geometry": { "type": "Point", "coordinates": [ 116.5, -33.25 ] } },
{ "type": "Feature", "properties": { "t2m": 295.79620605252677, "u10": -5.6656406438620071, "v10": -0.8459569895434661, "d2m": 284.46785537156018, "ssr": 1324106.3090656616, "longitude": 116.5, "latitude": -33.5, "time": "2000-01-01T00:00:00" }, "geometry": { "type": "Point", "coordinates": [ 116.5, -33.5 ] } },
{ "type": "Feature", "properties": { "t2m": 295.48934977550078, "u10": -5.8241860884191627, "v10": -0.91125622095146441, "d2m": 284.31388333252966, "ssr": 1276948.1757282591, "longitude": 116.5, "latitude": -33.75, "time": "2000-01-01T00:00:00" }, "geometry": { "type": "Point", "coordinates": [ 116.5, -33.75 ] } },
{ "type": "Feature", "properties": { "t2m": 294.82911673630201, "u10": -5.5656236578095957, "v10": -0.98755321764923087, "d2m": 284.71245095356301, "ssr": 1294255.5724901957, "longitude": 116.5, "latitude": -34.0, "time": "2000-01-01T00:00:00" }, "geometry": { "type": "Point", "coordinates": [ 116.5, -34.0 ] } },
{ "type": "Feature", "properties": { "t2m": 302.7259690899707, "u10": -4.7773416344039266, "v10": -1.7299023747085798, "d2m": 279.73167545098045, "ssr": 1130287.5871393038, "longitude": 116.75, "latitude": -29.0, "time": "2000-01-01T00:00:00" }, "geometry": { "type": "Point", "coordinates": [ 116.75, -29.0 ] } },
{ "type": "Feature", "properties": { "t2m": 300.3525297227697, "u10": -6.0508912568046274, "v10": -0.67549162755206005, "d2m": 280.6871819331929, "ssr": 1122508.3042741825, "longitude": 116.75, "latitude": -31.5, "time": "2000-01-01T00:00:00" }, "geometry": { "type": "Point", "coordinates": [ 116.75, -31.5 ] } },
{ "type": "Feature", "properties": { "t2m": 297.10056888606579, "u10": -5.572291456879757, "v10": -0.76141166887837353, "d2m": 283.79829696183305, "ssr": 1285270.199258389, "longitude": 116.75, "latitude": -33.0, "time": "2000-01-01T00:00:00" }, "geometry": { "type": "Point", "coordinates": [ 116.75, -33.0 ] } },
{ "type": "Feature", "properties": { "t2m": 295.96618474825544, "u10": -5.8241860884191627, "v10": -0.9820543350043468, "d2m": 284.1150394421245, "ssr": 1276827.5666915905, "longitude": 116.75, "latitude": -33.5, "time": "2000-01-01T00:00:00" }, "geometry": { "type": "Point", "coordinates": [ 116.75, -33.5 ] } },
{ "type": "Feature", "properties": { "t2m": 294.7781231275834, "u10": -5.8197408890390552, "v10": -1.0287948374858611, "d2m": 284.42122383973953, "ssr": 1269711.6335281462, "longitude": 116.75, "latitude": -34.0, "time": "2000-01-01T00:00:00" }, "geometry": { "type": "Point", "coordinates": [ 116.75, -34.0 ] } },
{ "type": "Feature", "properties": { "t2m": 302.98541025713553, "u10": -6.135350045026664, "v10": -2.1540036986952633, "d2m": 279.60673813930998, "ssr": 1139574.4829627823, "longitude": 117.0, "latitude": -28.5, "time": "2000-01-01T00:00:00" }, "geometry": { "type": "Point", "coordinates": [ 117.0, -28.5 ] } },
{ "type": "Feature", "properties": { "t2m": 302.82527243326479, "u10": -5.1107315879119639, "v10": -1.8165097763655038, "d2m": 279.39381680533631, "ssr": 1136318.0389727314, "longitude": 117.0, "latitude": -28.75, "time": "2000-01-01T00:00:00" }, "geometry": { "type": "Point", "coordinates": [ 117.0, -28.75 ] } },
{ "type": "Feature", "properties": { "t2m": 302.63561199382019, "u10": -4.6862150471117303, "v10": -2.0577732524097923, "d2m": 279.26711981321972, "ssr": 1147414.0703462379, "longitude": 117.0, "latitude": -29.0, "time": "2000-01-01T00:00:00" }, "geometry": { "type": "Point", "coordinates": [ 117.0, -29.0 ] } },
{ "type": "Feature", "properties": { "t2m": 300.14318753960913, "u10": -6.0560773227480862, "v10": -0.95662200277175791, "d2m": 281.30043056864605, "ssr": 1116236.634367418, "longitude": 117.0, "latitude": -31.5, "time": "2000-01-01T00:00:00" }, "geometry": { "type": "Point", "coordinates": [ 117.0, -31.5 ] } },
{ "type": "Feature", "properties": { "t2m": 296.80176423146906, "u10": -5.6204477834975854, "v10": -0.82946034160881388, "d2m": 283.76486303335787, "ssr": 1279360.3564616302, "longitude": 117.0, "latitude": -33.0, "time": "2000-01-01T00:00:00" }, "geometry": { "type": "Point", "coordinates": [ 117.0, -33.0 ] } },
{ "type": "Feature", "properties": { "t2m": 296.11021932726766, "u10": -5.786401893688252, "v10": -0.86176627714750775, "d2m": 284.10096199855599, "ssr": 1280084.0106816413, "longitude": 117.0, "latitude": -33.25, "time": "2000-01-01T00:00:00" }, "geometry": { "type": "Point", "coordinates": [ 117.0, -33.25 ] } },
{ "type": "Feature", "properties": { "t2m": 295.77831355823952, "u10": -5.8567842172066147, "v10": -0.87070196144544443, "d2m": 283.98394324889279, "ssr": 1281832.8417133354, "longitude": 117.0, "latitude": -33.5, "time": "2000-01-01T00:00:00" }, "geometry": { "type": "Point", "coordinates": [ 117.0, -33.5 ] } },
{ "type": "Feature", "properties": { "t2m": 295.16460100418755, "u10": -5.9701368013993488, "v10": -0.88788596971070699, "d2m": 283.88276162324411, "ssr": 1263801.7907313872, "longitude": 117.0, "latitude": -33.75, "time": "2000-01-01T00:00:00" }, "geometry": { "type": "Point", "coordinates": [ 117.0, -33.75 ] } },
{ "type": "Feature", "properties": { "t2m": 294.48558084598722, "u10": -6.0560773227480862, "v10": -1.0074866672369356, "d2m": 284.24525579513318, "ssr": 1265188.7946530757, "longitude": 117.0, "latitude": -34.0, "time": "2000-01-01T00:00:00" }, "geometry": { "type": "Point", "coordinates": [ 117.0, -34.0 ] } },
{ "type": "Feature", "properties": { "t2m": 299.78802152800762, "u10": -5.9908810651731823, "v10": -1.111965437489733, "d2m": 281.90752032253789, "ssr": 1127453.2747775931, "longitude": 117.25, "latitude": -31.5, "time": "2000-01-01T00:00:00" }, "geometry": { "type": "Point", "coordinates": [ 117.25, -31.5 ] } },
{ "type": "Feature", "properties": { "t2m": 296.51101119930155, "u10": -5.641192047271419, "v10": -0.87963764574338088, "d2m": 283.81941312718584, "ssr": 1275983.3034349107, "longitude": 117.25, "latitude": -33.0, "time": "2000-01-01T00:00:00" }, "geometry": { "type": "Point", "coordinates": [ 117.25, -33.0 ] } },
{ "type": "Feature", "properties": { "t2m": 295.57165524922203, "u10": -5.8345582203060804, "v10": -0.80196592838439351, "d2m": 283.99186181090005, "ssr": 1288466.3387301057, "longitude": 117.25, "latitude": -33.5, "time": "2000-01-01T00:00:00" }, "geometry": { "type": "Point", "coordinates": [ 117.25, -33.5 ] } },
{ "type": "Feature", "properties": { "t2m": 294.04184698766392, "u10": -5.9827315329763184, "v10": -0.88788596971070699, "d2m": 284.1264773650239, "ssr": 1292567.0459768362, "longitude": 117.25, "latitude": -34.0, "time": "2000-01-01T00:00:00" }, "geometry": { "type": "Point", "coordinates": [ 117.25, -34.0 ] } },
{ "type": "Feature", "properties": { "t2m": 299.33265754839766, "u10": -5.9175352754014128, "v10": -1.2006349201384885, "d2m": 282.5286875199983, "ssr": 1164902.3806631775, "longitude": 117.5, "latitude": -31.5, "time": "2000-01-01T00:00:00" }, "geometry": { "type": "Point", "coordinates": [ 117.5, -31.5 ] } },
{ "type": "Feature", "properties": { "t2m": 297.61050497325181, "u10": -5.8723424150369912, "v10": -0.74079085896005836, "d2m": 283.54402313737688, "ssr": 1230996.1327575422, "longitude": 117.5, "latitude": -32.5, "time": "2000-01-01T00:00:00" }, "geometry": { "type": "Point", "coordinates": [ 117.5, -32.5 ] } },
{ "type": "Feature", "properties": { "t2m": 296.77671473946691, "u10": -5.767139363041121, "v10": -0.87826292508215997, "d2m": 283.83525025120042, "ssr": 1264404.8359147301, "longitude": 117.5, "latitude": -32.75, "time": "2000-01-01T00:00:00" }, "geometry": { "type": "Point", "coordinates": [ 117.5, -32.75 ] } },
{ "type": "Feature", "properties": { "t2m": 296.35087337543087, "u10": -5.6367468478913114, "v10": -0.9250034275636746, "d2m": 283.85460673610709, "ssr": 1273812.340774877, "longitude": 117.5, "latitude": -33.0, "time": "2000-01-01T00:00:00" }, "geometry": { "type": "Point", "coordinates": [ 117.5, -33.0 ] } },
{ "type": "Feature", "properties": { "t2m": 295.8132039220996, "u10": -5.7004613723395146, "v10": -0.81090161268233019, "d2m": 284.20478314487372, "ssr": 1287802.9890284287, "longitude": 117.5, "latitude": -33.25, "time": "2000-01-01T00:00:00" }, "geometry": { "type": "Point", "coordinates": [ 117.5, -33.25 ] } },
{ "type": "Feature", "properties": { "t2m": 295.23348710719341, "u10": -5.7071291714096741, "v10": -0.62256488209505079, "d2m": 283.87836242212893, "ssr": 1306195.8671203821, "longitude": 117.5, "latitude": -33.5, "time": "2000-01-01T00:00:00" }, "geometry": { "type": "Point", "coordinates": [ 117.5, -33.5 ] } },
{ "type": "Feature", "properties": { "t2m": 294.37196350726333, "u10": -5.7826975608714957, "v10": -0.60950503581345117, "d2m": 283.657522526148, "ssr": 1312769.0596188181, "longitude": 117.5, "latitude": -33.75, "time": "2000-01-01T00:00:00" }, "geometry": { "type": "Point", "coordinates": [ 117.5, -33.75 ] } },
{ "type": "Feature", "properties": { "t2m": 293.80924456192992, "u10": -5.8760467478537457, "v10": -0.70092395978464872, "d2m": 284.02265621870617, "ssr": 1320186.5153739338, "longitude": 117.5, "latitude": -34.0, "time": "2000-01-01T00:00:00" }, "geometry": { "type": "Point", "coordinates": [ 117.5, -34.0 ] } },
{ "type": "Feature", "properties": { "t2m": 293.60258625291243, "u10": -5.9056814103877944, "v10": -0.87551348375971794, "d2m": 284.59719188434588, "ssr": 1351605.1694260908, "longitude": 117.5, "latitude": -34.25, "time": "2000-01-01T00:00:00" }, "geometry": { "type": "Point", "coordinates": [ 117.5, -34.25 ] } },
{ "type": "Feature", "properties": { "t2m": 293.62584649548586, "u10": -5.6982387726494608, "v10": -0.87551348375971794, "d2m": 284.96848445846524, "ssr": 1409075.3753986543, "longitude": 117.5, "latitude": -34.5, "time": "2000-01-01T00:00:00" }, "geometry": { "type": "Point", "coordinates": [ 117.5, -34.5 ] } },
{ "type": "Feature", "properties": { "t2m": 293.92107265122513, "u10": -5.7841792939981982, "v10": -1.1360230490611007, "d2m": 285.37849000239805, "ssr": 1416311.9175987672, "longitude": 117.5, "latitude": -34.75, "time": "2000-01-01T00:00:00" }, "geometry": { "type": "Point", "coordinates": [ 117.5, -34.75 ] } },
{ "type": "Feature", "properties": { "t2m": 293.7036788456353, "u10": -6.497633794505397, "v10": -1.4865768176724599, "d2m": 286.20817933271695, "ssr": 1407748.6759953001, "longitude": 117.5, "latitude": -35.0, "time": "2000-01-01T00:00:00" }, "geometry": { "type": "Point", "coordinates": [ 117.5, -35.0 ] } },
{ "type": "Feature", "properties": { "t2m": 298.94975817065091, "u10": -5.8567842172066147, "v10": -1.2075085234445937, "d2m": 282.91581721813225, "ssr": 1204884.2763188013, "longitude": 117.75, "latitude": -31.5, "time": "2000-01-01T00:00:00" }, "geometry": { "type": "Point", "coordinates": [ 117.75, -31.5 ] } },
{ "type": "Feature", "properties": { "t2m": 297.25086583807848, "u10": -5.8108504902788418, "v10": -0.68099051019694412, "d2m": 283.73934766688996, "ssr": 1244624.9539010881, "longitude": 117.75, "latitude": -32.5, "time": "2000-01-01T00:00:00" }, "geometry": { "type": "Point", "coordinates": [ 117.75, -32.5 ] } },
{ "type": "Feature", "properties": { "t2m": 293.50865065790447, "u10": -5.7960331590118184, "v10": -0.97724281269007307, "d2m": 284.77843897029038, "ssr": 1380068.9020798681, "longitude": 117.75, "latitude": -34.5, "time": "2000-01-01T00:00:00" }, "geometry": { "type": "Point", "coordinates": [ 117.75, -34.5 ] } },
{ "type": "Feature", "properties": { "t2m": 293.79045744292836, "u10": -6.7569370916783154, "v10": -1.945046158189669, "d2m": 285.94686678647651, "ssr": 1338941.2205758933, "longitude": 117.75, "latitude": -35.0, "time": "2000-01-01T00:00:00" }, "geometry": { "type": "Point", "coordinates": [ 117.75, -35.0 ] } },
{ "type": "Feature", "properties": { "t2m": 298.57759428947656, "u10": -5.8560433506432634, "v10": -1.2686835928689288, "d2m": 283.15161439790478, "ssr": 1211336.8597805686, "longitude": 118.0, "latitude": -31.5, "time": "2000-01-01T00:00:00" }, "geometry": { "type": "Point", "coordinates": [ 118.0, -31.5 ] } },
{ "type": "Feature", "properties": { "t2m": 298.46755544961007, "u10": -5.7330595011269665, "v10": -1.0177970721960929, "d2m": 283.24751698221519, "ssr": 1214050.5631056111, "longitude": 118.0, "latitude": -31.75, "time": "2000-01-01T00:00:00" }, "geometry": { "type": "Point", "coordinates": [ 118.0, -31.75 ] } },
{ "type": "Feature", "properties": { "t2m": 298.071236701148, "u10": -5.6478598463415786, "v10": -0.73872877796822667, "d2m": 283.43140358882886, "ssr": 1223819.8950757636, "longitude": 118.0, "latitude": -32.0, "time": "2000-01-01T00:00:00" }, "geometry": { "type": "Point", "coordinates": [ 118.0, -32.0 ] } },
{ "type": "Feature", "properties": { "t2m": 297.50672850638591, "u10": -5.6441555135248223, "v10": -0.63699944903787153, "d2m": 283.66192172726318, "ssr": 1241730.3370210431, "longitude": 118.0, "latitude": -32.25, "time": "2000-01-01T00:00:00" }, "geometry": { "type": "Point", "coordinates": [ 118.0, -32.25 ] } },
{ "type": "Feature", "properties": { "t2m": 297.01647416291581, "u10": -5.5685871240630007, "v10": -0.64318569201336617, "d2m": 283.93907139751815, "ssr": 1265791.8398364184, "longitude": 118.0, "latitude": -32.5, "time": "2000-01-01T00:00:00" }, "geometry": { "type": "Point", "coordinates": [ 118.0, -32.5 ] } },
{ "type": "Feature", "properties": { "t2m": 293.35656445646305, "u10": -5.4522710736168634, "v10": -0.87345140276788646, "d2m": 284.76524136694491, "ssr": 1393154.9825584057, "longitude": 118.0, "latitude": -34.5, "time": "2000-01-01T00:00:00" }, "geometry": { "type": "Point", "coordinates": [ 118.0, -34.5 ] } },
{ "type": "Feature", "properties": { "t2m": 293.59274538105444, "u10": -6.2027689022916235, "v10": -1.6089269565211306, "d2m": 285.11893713660368, "ssr": 1326699.4033540355, "longitude": 118.0, "latitude": -34.75, "time": "2000-01-01T00:00:00" }, "geometry": { "type": "Point", "coordinates": [ 118.0, -34.75 ] } },
{ "type": "Feature", "properties": { "t2m": 292.90746284985357, "u10": -7.2718393532073939, "v10": -2.5141805119351699, "d2m": 286.70440921850684, "ssr": 1308427.1342987502, "longitude": 118.0, "latitude": -35.0, "time": "2000-01-01T00:00:00" }, "geometry": { "type": "Point", "coordinates": [ 118.0, -35.0 ] } },
{ "type": "Feature", "properties": { "t2m": 298.16069917258415, "u10": -5.9975488642433419, "v10": -1.1930739565017729, "d2m": 283.18680800682603, "ssr": 1226955.7300291457, "longitude": 118.25, "latitude": -31.5, "time": "2000-01-01T00:00:00" }, "geometry": { "type": "Point", "coordinates": [ 118.25, -31.5 ] } },
{ "type": "Feature", "properties": { "t2m": 296.77850398889564, "u10": -5.3974469479288754, "v10": -0.67136746556839688, "d2m": 284.01121829580677, "ssr": 1282797.7140066838, "longitude": 118.25, "latitude": -32.5, "time": "2000-01-01T00:00:00" }, "geometry": { "type": "Point", "coordinates": [ 118.25, -32.5 ] } },
{ "type": "Feature", "properties": { "t2m": 297.42889615623642, "u10": -6.1983237029115159, "v10": -1.1655795432773526, "d2m": 283.21408305374001, "ssr": 1237689.9342926466, "longitude": 118.5, "latitude": -31.5, "time": "2000-01-01T00:00:00" }, "geometry": { "type": "Point", "coordinates": [ 118.5, -31.5 ] } },
{ "type": "Feature", "properties": { "t2m": 296.49132945558563, "u10": -5.2989116950031665, "v10": -0.72704365234784818, "d2m": 284.0208965382601, "ssr": 1294918.9221918727, "longitude": 118.5, "latitude": -32.5, "time": "2000-01-01T00:00:00" }, "geometry": { "type": "Point", "coordinates": [ 118.5, -32.5 ] } },
{ "type": "Feature", "properties": { "t2m": 296.82502447404244, "u10": -6.239812230459183, "v10": -1.0569766110408922, "d2m": 283.24575730176917, "ssr": 1229970.9559458594, "longitude": 118.75, "latitude": -31.5, "time": "2000-01-01T00:00:00" }, "geometry": { "type": "Point", "coordinates": [ 118.75, -31.5 ] } },
{ "type": "Feature", "properties": { "t2m": 296.01091598397352, "u10": -5.2707587655958221, "v10": -0.79440496474767797, "d2m": 284.09744263766385, "ssr": 1301853.9418003145, "longitude": 118.75, "latitude": -32.5, "time": "2000-01-01T00:00:00" }, "geometry": { "type": "Point", "coordinates": [ 118.75, -32.5 ] } },
{ "type": "Feature", "properties": { "t2m": 296.73914050146374, "u10": -7.0132769225978286, "v10": -0.75247598458043685, "d2m": 283.14809503701264, "ssr": 1232202.2231242275, "longitude": 119.0, "latitude": -31.0, "time": "2000-01-01T00:00:00" }, "geometry": { "type": "Point", "coordinates": [ 119.0, -31.0 ] } },
{ "type": "Feature", "properties": { "t2m": 296.59689517188025, "u10": -6.4768895307315635, "v10": -0.78959344243340446, "d2m": 283.28271059113649, "ssr": 1183837.9994201395, "longitude": 119.0, "latitude": -31.25, "time": "2000-01-01T00:00:00" }, "geometry": { "type": "Point", "coordinates": [ 119.0, -31.25 ] } },
{ "type": "Feature", "properties": { "t2m": 296.31956151042823, "u10": -6.566534384897059, "v10": -0.9298149498779481, "d2m": 283.22816049730852, "ssr": 1203075.1407687729, "longitude": 119.0, "latitude": -31.5, "time": "2000-01-01T00:00:00" }, "geometry": { "type": "Point", "coordinates": [ 119.0, -31.5 ] } },
{ "type": "Feature", "properties": { "t2m": 296.05206872083414, "u10": -6.4835573298017248, "v10": -1.1442713730284266, "d2m": 283.20616449173269, "ssr": 1255781.2897929288, "longitude": 119.0, "latitude": -31.75, "time": "2000-01-01T00:00:00" }, "geometry": { "type": "Point", "coordinates": [ 119.0, -31.75 ] } },
{ "type": "Feature", "properties": { "t2m": 295.95008150339692, "u10": -5.8597476834600197, "v10": -1.1731405069140681, "d2m": 283.42876406815975, "ssr": 1284606.849556712, "longitude": 119.0, "latitude": -32.0, "time": "2000-01-01T00:00:00" }, "geometry": { "type": "Point", "coordinates": [ 119.0, -32.0 ] } },
{ "type": "Feature", "properties": { "t2m": 295.86777602967567, "u10": -5.2544597012020962, "v10": -0.96899448872274696, "d2m": 283.84932769476893, "ssr": 1292808.2640501733, "longitude": 119.0, "latitude": -32.25, "time": "2000-01-01T00:00:00" }, "geometry": { "type": "Point", "coordinates": [ 119.0, -32.25 ] } },
{ "type": "Feature", "properties": { "t2m": 295.54213263364812, "u10": -5.1566653148397386, "v10": -0.75041390358860538, "d2m": 284.12031848346265, "ssr": 1319643.7747089253, "longitude": 119.0, "latitude": -32.5, "time": "2000-01-01T00:00:00" }, "geometry": { "type": "Point", "coordinates": [ 119.0, -32.5 ] } },
{ "type": "Feature", "properties": { "t2m": 296.42244335257976, "u10": -6.5843151824174875, "v10": -0.45553632175669734, "d2m": 283.30822595760441, "ssr": 1248966.8792211558, "longitude": 119.25, "latitude": -31.0, "time": "2000-01-01T00:00:00" }, "geometry": { "type": "Point", "coordinates": [ 119.25, -31.0 ] } },
{ "type": "Feature", "properties": { "t2m": 295.90892876653629, "u10": -6.1798020388277362, "v10": -0.65830761928679726, "d2m": 283.36277605143238, "ssr": 1229006.083652511, "longitude": 119.25, "latitude": -31.5, "time": "2000-01-01T00:00:00" }, "geometry": { "type": "Point", "coordinates": [ 119.25, -31.5 ] } },
{ "type": "Feature", "properties": { "t2m": 295.30595170905667, "u10": -5.3892974157320133, "v10": -1.004049865583883, "d2m": 283.6460846032486, "ssr": 1348167.811881037, "longitude": 119.25, "latitude": -32.0, "time": "2000-01-01T00:00:00" }, "geometry": { "type": "Point", "coordinates": [ 119.25, -32.0 ] } },
{ "type": "Feature", "properties": { "t2m": 296.15942368655749, "u10": -6.2583338945429627, "v10": -0.30019288703872238, "d2m": 283.38389221678511, "ssr": 1294979.2267102073, "longitude": 119.5, "latitude": -31.0, "time": "2000-01-01T00:00:00" }, "geometry": { "type": "Point", "coordinates": [ 119.5, -31.0 ] } },
{ "type": "Feature", "properties": { "t2m": 295.94471375511074, "u10": -5.8486346850097526, "v10": -0.32081369695703776, "d2m": 283.50531016756349, "ssr": 1286355.680588406, "longitude": 119.5, "latitude": -31.25, "time": "2000-01-01T00:00:00" }, "geometry": { "type": "Point", "coordinates": [ 119.5, -31.25 ] } },
{ "type": "Feature", "properties": { "t2m": 295.57523374807948, "u10": -5.8693789487835861, "v10": -0.45141215977303439, "d2m": 283.48155448154165, "ssr": 1308487.4388170848, "longitude": 119.5, "latitude": -31.5, "time": "2000-01-01T00:00:00" }, "geometry": { "type": "Point", "coordinates": [ 119.5, -31.5 ] } },
{ "type": "Feature", "properties": { "t2m": 294.99909543203069, "u10": -5.3789252838450956, "v10": -0.51533667051981158, "d2m": 283.87836242212893, "ssr": 1352811.2597927763, "longitude": 119.5, "latitude": -31.75, "time": "2000-01-01T00:00:00" }, "geometry": { "type": "Point", "coordinates": [ 119.5, -31.75 ] } },
{ "type": "Feature", "properties": { "t2m": 294.71192089872068, "u10": -4.6906602464918379, "v10": -0.66174442093984986, "d2m": 284.17134921639854, "ssr": 1422101.1513588575, "longitude": 119.5, "latitude": -32.0, "time": "2000-01-01T00:00:00" }, "geometry": { "type": "Point", "coordinates": [ 119.5, -32.0 ] } },
{ "type": "Feature", "properties": { "t2m": 295.83109641638686, "u10": -5.8456712187563475, "v10": -0.1909025944716517, "d2m": 283.41908582570642, "ssr": 1381335.296964888, "longitude": 119.75, "latitude": -31.0, "time": "2000-01-01T00:00:00" }, "geometry": { "type": "Point", "coordinates": [ 119.75, -31.0 ] } },
{ "type": "Feature", "properties": { "t2m": 295.13149988975618, "u10": -5.2144529067811316, "v10": -0.26582487050819703, "d2m": 283.83525025120042, "ssr": 1392129.805746723, "longitude": 119.75, "latitude": -31.5, "time": "2000-01-01T00:00:00" }, "geometry": { "type": "Point", "coordinates": [ 119.75, -31.5 ] } },
{ "type": "Feature", "properties": { "t2m": 294.19035469024794, "u10": -4.3565294264204493, "v10": -0.43903967382204512, "d2m": 284.41330527773226, "ssr": 1484154.5007248258, "longitude": 119.75, "latitude": -32.0, "time": "2000-01-01T00:00:00" }, "geometry": { "type": "Point", "coordinates": [ 119.75, -32.0 ] } },
{ "type": "Feature", "properties": { "t2m": 295.64322522637093, "u10": -5.6471189797782273, "v10": -0.20190035976141985, "d2m": 282.81551543270666, "ssr": 1442423.7740375078, "longitude": 120.0, "latitude": -31.0, "time": "2000-01-01T00:00:00" }, "geometry": { "type": "Point", "coordinates": [ 120.0, -31.0 ] } },
{ "type": "Feature", "properties": { "t2m": 295.14581388518599, "u10": -5.5241351302619304, "v10": -0.20946132339813539, "d2m": 283.20440481128668, "ssr": 1450082.4478659607, "longitude": 120.0, "latitude": -31.25, "time": "2000-01-01T00:00:00" }, "geometry": { "type": "Point", "coordinates": [ 120.0, -31.25 ] } },
{ "type": "Feature", "properties": { "t2m": 294.62245842728453, "u10": -5.2389015033717197, "v10": -0.26032598786331296, "d2m": 283.67951853172377, "ssr": 1438986.4164924542, "longitude": 120.0, "latitude": -31.5, "time": "2000-01-01T00:00:00" }, "geometry": { "type": "Point", "coordinates": [ 120.0, -31.5 ] } },
{ "type": "Feature", "properties": { "t2m": 294.27266016396919, "u10": -4.772896435023819, "v10": -0.32287577794886924, "d2m": 283.92763347461874, "ssr": 1458826.6030244306, "longitude": 120.0, "latitude": -31.75, "time": "2000-01-01T00:00:00" }, "geometry": { "type": "Point", "coordinates": [ 120.0, -31.75 ] } },
{ "type": "Feature", "properties": { "t2m": 294.01053512266128, "u10": -4.3772736901942828, "v10": -0.40535901762213034, "d2m": 284.05609014718135, "ssr": 1508517.5261318726, "longitude": 120.0, "latitude": -32.0, "time": "2000-01-01T00:00:00" }, "geometry": { "type": "Point", "coordinates": [ 120.0, -32.0 ] } },
{ "type": "Feature", "properties": { "t2m": 295.15297088290089, "u10": -6.0538547230580324, "v10": -0.26719959116941816, "d2m": 282.80055814891512, "ssr": 1453881.63252102, "longitude": 120.25, "latitude": -31.0, "time": "2000-01-01T00:00:00" }, "geometry": { "type": "Point", "coordinates": [ 120.25, -31.0 ] } },
{ "type": "Feature", "properties": { "t2m": 294.66271653943079, "u10": -6.0249609270873368, "v10": -0.3434965878671844, "d2m": 282.70289588415858, "ssr": 1494285.6598049838, "longitude": 120.5, "latitude": -31.0, "time": "2000-01-01T00:00:00" }, "geometry": { "type": "Point", "coordinates": [ 120.5, -31.0 ] } },
{ "type": "Feature", "properties": { "t2m": 294.27802791225537, "u10": -5.808627890588788, "v10": -0.12766544405548486, "d2m": 282.63074898586996, "ssr": 1528418.017182183, "longitude": 120.75, "latitude": -31.0, "time": "2000-01-01T00:00:00" }, "geometry": { "type": "Point", "coordinates": [ 120.75, -31.0 ] } },
{ "type": "Feature", "properties": { "t2m": 294.541942202992, "u10": -7.1332973058607223, "v10": 1.2546161808022473, "d2m": 282.14243766208739, "ssr": 1491391.0429249387, "longitude": 121.0, "latitude": -30.5, "time": "2000-01-01T00:00:00" }, "geometry": { "type": "Point", "coordinates": [ 121.0, -30.5 ] } },
{ "type": "Feature", "properties": { "t2m": 294.21987730582185, "u10": -6.2309218316989678, "v10": 0.68204502540369383, "d2m": 282.44510269881027, "ssr": 1516055.5909236569, "longitude": 121.0, "latitude": -30.75, "time": "2000-01-01T00:00:00" }, "geometry": { "type": "Point", "coordinates": [ 121.0, -30.75 ] } },
{ "type": "Feature", "properties": { "t2m": 294.10089221881179, "u10": -5.4967230674179355, "v10": 0.2290745675313689, "d2m": 282.57531905181901, "ssr": 1545303.2823157799, "longitude": 121.0, "latitude": -31.0, "time": "2000-01-01T00:00:00" }, "geometry": { "type": "Point", "coordinates": [ 121.0, -31.0 ] } },
{ "type": "Feature", "properties": { "t2m": 294.52226045927603, "u10": -6.9717883950501616, "v10": 1.2663013064226258, "d2m": 282.04477539733085, "ssr": 1497059.6676483606, "longitude": 121.25, "latitude": -30.5, "time": "2000-01-01T00:00:00" }, "geometry": { "type": "Point", "coordinates": [ 121.25, -30.5 ] } },
{ "type": "Feature", "properties": { "t2m": 293.98548563065913, "u10": -5.7286143017468589, "v10": 0.66554837746904161, "d2m": 282.38791308431325, "ssr": 1548921.5534158363, "longitude": 121.25, "latitude": -31.0, "time": "2000-01-01T00:00:00" }, "geometry": { "type": "Point", "coordinates": [ 121.25, -31.0 ] } },
{ "type": "Feature", "properties": { "t2m": 294.35854413654789, "u10": -7.2992514160513888, "v10": 1.1625098965004392, "d2m": 281.84153230581052, "ssr": 1509301.4848702182, "longitude": 121.5, "latitude": -30.5, "time": "2000-01-01T00:00:00" }, "geometry": { "type": "Point", "coordinates": [ 121.5, -30.5 ] } },
{ "type": "Feature", "properties": { "t2m": 294.10447071766924, "u10": -7.219978693772811, "v10": 1.0903370617863357, "d2m": 282.14243766208739, "ssr": 1527332.5358521661, "longitude": 121.5, "latitude": -30.75, "time": "2000-01-01T00:00:00" }, "geometry": { "type": "Point", "coordinates": [ 121.5, -30.75 ] } },
{ "type": "Feature", "properties": { "t2m": 293.79582519121453, "u10": -6.242775696712588, "v10": 0.76109146342390233, "d2m": 282.21018535926083, "ssr": 1550549.7754108617, "longitude": 121.5, "latitude": -31.0, "time": "2000-01-01T00:00:00" }, "geometry": { "type": "Point", "coordinates": [ 121.5, -31.0 ] } },
{ "type": "Feature", "properties": { "t2m": 292.78579388870043, "u10": -5.1477749160795234, "v10": 0.33767749976782924, "d2m": 283.92763347461874, "ssr": 1569847.2212778297, "longitude": 121.5, "latitude": -31.25, "time": "2000-01-01T00:00:00" }, "geometry": { "type": "Point", "coordinates": [ 121.5, -31.25 ] } },
{ "type": "Feature", "properties": { "t2m": 292.91909297114029, "u10": -4.7773416344039266, "v10": -0.18196691017371502, "d2m": 283.66368140770919, "ssr": 1585224.8734530695, "longitude": 121.5, "latitude": -31.5, "time": "2000-01-01T00:00:00" }, "geometry": { "type": "Point", "coordinates": [ 121.5, -31.5 ] } },
{ "type": "Feature", "properties": { "t2m": 292.80368638298768, "u10": -5.1559244482763873, "v10": -0.069927176284202308, "d2m": 283.54842233849206, "ssr": 1596622.4274182473, "longitude": 121.75, "latitude": -31.5, "time": "2000-01-01T00:00:00" }, "geometry": { "type": "Point", "coordinates": [ 121.75, -31.5 ] } },
{ "type": "Feature", "properties": { "t2m": 293.20447825502157, "u10": -5.5493245934158697, "v10": -0.082299662235191362, "d2m": 282.43718413680301, "ssr": 1607778.7633100881, "longitude": 122.0, "latitude": -31.5, "time": "2000-01-01T00:00:00" }, "geometry": { "type": "Point", "coordinates": [ 122.0, -31.5 ] } }
]
}
