{
"type": "FeatureCollection",
"name": "3",
"features": [
{ "type": "Feature", "properties": { "CAST(concat('2000-', lpad(CAST(\"month\" AS VARCHAR), 2, '0'), '-01 00:00:00') AS TIMESTAMP)": "2000-02-01T00:00:00", "direction": 49.155946102101836, "line name": "MOR-TS 81", "index": 6, "capacity": "132", "weather longitude": 116.0, "weather latitude": -29.75, "latitude": -29.75, "longitude": 116.0, "avg temperature (deg C)": 26.68047635514921, "std dev temperature": 5.5060010744347236, "avg u10": -2.6449530930728828, "avg v10": 1.9562856548469778, "avg wind speed": 4.9461631128207424 }, "geometry": { "type": "LineString", "coordinates": [ [ 115.971183901000018, -29.646399095999982 ], [ 115.856799913000032, -29.547511907999933 ] ] } },
{ "type": "Feature", "properties": { "CAST(concat('2000-', lpad(CAST(\"month\" AS VARCHAR), 2, '0'), '-01 00:00:00') AS TIMESTAMP)": "2000-01-01T00:00:00", "direction": 4.2321324536306975, "line name": "MOR-TS 81", "index": 4, "capacity": "132", "weather longitude": 116.0, "weather latitude": -30.0, "latitude": -30.0, "longitude": 116.0, "avg temperature (deg C)": 24.767328784058179, "std dev temperature": 5.4588028615537949, "avg u10": -1.884422009602134, "avg v10": 1.5248263959307948, "avg wind speed": 4.3384029838724594 }, "geometry": { "type": "LineString", "coordinates": [ [ 116.005248073000075, -30.065074237999966 ], [ 115.979970944000115, -29.72348806399998 ] ] } },
{ "type": "Feature", "properties": { "CAST(concat('2000-', lpad(CAST(\"month\" AS VARCHAR), 2, '0'), '-01 00:00:00') AS TIMESTAMP)": "2000-12-01T00:00:00", "direction": 4.2321324536306975, "line name": "MOR-TS 81", "index": 4, "capacity": "132", "weather longitude": 116.0, "weather latitude": -30.0, "latitude": -30.0, "longitude": 116.0, "avg temperature (deg C)": 25.711415182560245, "std dev temperature": 7.1013115497941266, "avg u10": -1.1127547155103252, "avg v10": 3.1219487744464454, "avg wind speed": 4.7216836391241479 }, "geometry": { "type": "LineString", "coordinates": [ [ 116.005248073000075, -30.065074237999966 ], [ 115.979970944000115, -29.72348806399998 ] ] } },
{ "type": "Feature", "properties": { "CAST(concat('2000-', lpad(CAST(\"month\" AS VARCHAR), 2, '0'), '-01 00:00:00') AS TIMESTAMP)": "2000-01-01T00:00:00", "direction": 0.2310166195421175, "line name": "MOR-TS 81", "index": 3, "capacity": "132", "weather longitude": 116.0, "weather latitude": -30.25, "latitude": -30.25, "longitude": 116.0, "avg temperature (deg C)": 24.340992009562171, "std dev temperature": 5.4566325932971118, "avg u10": -1.8263506179691311, "avg v10": 1.4918469581326717, "avg wind speed": 4.2216828259714916 }, "geometry": { "type": "LineString", "coordinates": [ [ 116.006344639000076, -30.337038494999945 ], [ 116.005248073000075, -30.065074237999966 ] ] } },
{ "type": "Feature", "properties": { "CAST(concat('2000-', lpad(CAST(\"month\" AS VARCHAR), 2, '0'), '-01 00:00:00') AS TIMESTAMP)": "2000-12-01T00:00:00", "direction": 0.2310166195421175, "line name": "MOR-TS 81", "index": 3, "capacity": "132", "weather longitude": 116.0, "weather latitude": -30.25, "latitude": -30.25, "longitude": 116.0, "avg temperature (deg C)": 25.221077869862881, "std dev temperature": 7.1715732158335586, "avg u10": -0.90951032163098078, "avg v10": 3.0718102729111849, "avg wind speed": 4.6180269673568262 }, "geometry": { "type": "LineString", "coordinates": [ [ 116.006344639000076, -30.337038494999945 ], [ 116.005248073000075, -30.065074237999966 ] ] } },
{ "type": "Feature", "properties": { "CAST(concat('2000-', lpad(CAST(\"month\" AS VARCHAR), 2, '0'), '-01 00:00:00') AS TIMESTAMP)": "2000-06-01T00:00:00", "direction": 5.6999399447789756, "line name": "MOR-TS 81", "index": 2, "capacity": "132", "weather longitude": 116.0, "weather latitude": -30.5, "latitude": -30.5, "longitude": 116.0, "avg temperature (deg C)": 13.501852963656972, "std dev temperature": 4.116853674842333, "avg u10": -0.59194872334396043, "avg v10": -1.4155543568450031, "avg wind speed": 3.9406401817171899 }, "geometry": { "type": "LineString", "coordinates": [ [ 116.027286272000083, -30.546848825999973 ], [ 116.006344639000076, -30.337038494999945 ] ] } },
{ "type": "Feature", "properties": { "CAST(concat('2000-', lpad(CAST(\"month\" AS VARCHAR), 2, '0'), '-01 00:00:00') AS TIMESTAMP)": "2000-10-01T00:00:00", "direction": 5.6999399447789756, "line name": "MOR-TS 81", "index": 2, "capacity": "132", "weather longitude": 116.0, "weather latitude": -30.5, "latitude": -30.5, "longitude": 116.0, "avg temperature (deg C)": 17.500318683256978, "std dev temperature": 6.3835649312089036, "avg u10": -0.23712611754697679, "avg v10": 2.1873964849401322, "avg wind speed": 4.0262013126668359 }, "geometry": { "type": "LineString", "coordinates": [ [ 116.027286272000083, -30.546848825999973 ], [ 116.006344639000076, -30.337038494999945 ] ] } },
{ "type": "Feature", "properties": { "CAST(concat('2000-', lpad(CAST(\"month\" AS VARCHAR), 2, '0'), '-01 00:00:00') AS TIMESTAMP)": "2000-02-01T00:00:00", "direction": 0.73014291132903963, "line name": "MOR-TS 81", "index": 1, "capacity": "132", "weather longitude": 116.0, "weather latitude": -30.75, "latitude": -30.75, "longitude": 116.0, "avg temperature (deg C)": 25.281648349903946, "std dev temperature": 5.6176545909018349, "avg u10": -2.4517732011425184, "avg v10": 1.8903918962564645, "avg wind speed": 4.8803697394759249 }, "geometry": { "type": "LineString", "coordinates": [ [ 116.028364975000045, -30.63149223299996 ], [ 116.027286272000083, -30.546848825999973 ] ] } },
{ "type": "Feature", "properties": { "CAST(concat('2000-', lpad(CAST(\"month\" AS VARCHAR), 2, '0'), '-01 00:00:00') AS TIMESTAMP)": "2000-02-01T00:00:00", "direction": 6.5028354634843026, "line name": "MOR-TS 81", "index": 5, "capacity": "132", "weather longitude": 116.0, "weather latitude": -29.75, "latitude": -29.75, "longitude": 116.0, "avg temperature (deg C)": 26.68047635514921, "std dev temperature": 5.5060010744347236, "avg u10": -2.6449530930728828, "avg v10": 1.9562856548469778, "avg wind speed": 4.9461631128207424 }, "geometry": { "type": "LineString", "coordinates": [ [ 115.979970944000115, -29.72348806399998 ], [ 115.971183901000018, -29.646399095999982 ] ] } },
{ "type": "Feature", "properties": { "CAST(concat('2000-', lpad(CAST(\"month\" AS VARCHAR), 2, '0'), '-01 00:00:00') AS TIMESTAMP)": "2000-04-01T00:00:00", "direction": 82.59286729294638, "line name": "MOR-TS 81", "index": 8, "capacity": "132", "weather longitude": 115.75, "weather latitude": -29.5, "latitude": -29.5, "longitude": 115.75, "avg temperature (deg C)": 19.734808964030492, "std dev temperature": 4.8569656409576085, "avg u10": -2.1472828271899402, "avg v10": 0.38353493515793413, "avg wind speed": 4.27227460573177 }, "geometry": { "type": "LineString", "coordinates": [ [ 115.803076840000017, -29.522524983999972 ], [ 115.768973667000068, -29.518091437999942 ] ] } },
{ "type": "Feature", "properties": { "CAST(concat('2000-', lpad(CAST(\"month\" AS VARCHAR), 2, '0'), '-01 00:00:00') AS TIMESTAMP)": "2000-07-01T00:00:00", "direction": 82.59286729294638, "line name": "MOR-TS 81", "index": 8, "capacity": "132", "weather longitude": 115.75, "weather latitude": -29.5, "latitude": -29.5, "longitude": 115.75, "avg temperature (deg C)": 12.604042431366679, "std dev temperature": 3.1763424827583142, "avg u10": 1.2210127990048114, "avg v10": -0.57582345574212446, "avg wind speed": 3.8361358454404288 }, "geometry": { "type": "LineString", "coordinates": [ [ 115.803076840000017, -29.522524983999972 ], [ 115.768973667000068, -29.518091437999942 ] ] } },
{ "type": "Feature", "properties": { "CAST(concat('2000-', lpad(CAST(\"month\" AS VARCHAR), 2, '0'), '-01 00:00:00') AS TIMESTAMP)": "2000-04-01T00:00:00", "direction": 65.056578578683059, "line name": "MOR-TS 81", "index": 7, "capacity": "132", "weather longitude": 115.75, "weather latitude": -29.5, "latitude": -29.5, "longitude": 115.75, "avg temperature (deg C)": 19.734808964030492, "std dev temperature": 4.8569656409576085, "avg u10": -2.1472828271899402, "avg v10": 0.38353493515793413, "avg wind speed": 4.27227460573177 }, "geometry": { "type": "LineString", "coordinates": [ [ 115.856799913000032, -29.547511907999933 ], [ 115.803076840000017, -29.522524983999972 ] ] } },
{ "type": "Feature", "properties": { "CAST(concat('2000-', lpad(CAST(\"month\" AS VARCHAR), 2, '0'), '-01 00:00:00') AS TIMESTAMP)": "2000-07-01T00:00:00", "direction": 65.056578578683059, "line name": "MOR-TS 81", "index": 7, "capacity": "132", "weather longitude": 115.75, "weather latitude": -29.5, "latitude": -29.5, "longitude": 115.75, "avg temperature (deg C)": 12.604042431366679, "std dev temperature": 3.1763424827583142, "avg u10": 1.2210127990048114, "avg v10": -0.57582345574212446, "avg wind speed": 3.8361358454404288 }, "geometry": { "type": "LineString", "coordinates": [ [ 115.856799913000032, -29.547511907999933 ], [ 115.803076840000017, -29.522524983999972 ] ] } },
{ "type": "Feature", "properties": { "CAST(concat('2000-', lpad(CAST(\"month\" AS VARCHAR), 2, '0'), '-01 00:00:00') AS TIMESTAMP)": "2000-08-01T00:00:00", "direction": 49.155946102101836, "line name": "MOR-TS 81", "index": 6, "capacity": "132", "weather longitude": 116.0, "weather latitude": -29.75, "latitude": -29.75, "longitude": 116.0, "avg temperature (deg C)": 11.647508243828838, "std dev temperature": 4.185423426861389, "avg u10": 0.41232507987845501, "avg v10": 0.33705203882183005, "avg wind speed": 3.6251920551028385 }, "geometry": { "type": "LineString", "coordinates": [ [ 115.971183901000018, -29.646399095999982 ], [ 115.856799913000032, -29.547511907999933 ] ] } },
{ "type": "Feature", "properties": { "CAST(concat('2000-', lpad(CAST(\"month\" AS VARCHAR), 2, '0'), '-01 00:00:00') AS TIMESTAMP)": "2000-09-01T00:00:00", "direction": 49.155946102101836, "line name": "MOR-TS 81", "index": 6, "capacity": "132", "weather longitude": 116.0, "weather latitude": -29.75, "latitude": -29.75, "longitude": 116.0, "avg temperature (deg C)": 14.995068589329037, "std dev temperature": 5.3326786508646427, "avg u10": 0.89403306730297782, "avg v10": 1.3631417850015122, "avg wind speed": 3.4503987953169739 }, "geometry": { "type": "LineString", "coordinates": [ [ 115.971183901000018, -29.646399095999982 ], [ 115.856799913000032, -29.547511907999933 ] ] } },
{ "type": "Feature", "properties": { "CAST(concat('2000-', lpad(CAST(\"month\" AS VARCHAR), 2, '0'), '-01 00:00:00') AS TIMESTAMP)": "2000-06-01T00:00:00", "direction": 4.2321324536306975, "line name": "MOR-TS 81", "index": 4, "capacity": "132", "weather longitude": 116.0, "weather latitude": -30.0, "latitude": -30.0, "longitude": 116.0, "avg temperature (deg C)": 13.6144862151952, "std dev temperature": 4.2176327755762504, "avg u10": -0.77402800008223505, "avg v10": -1.2107343436628342, "avg wind speed": 3.932163679794896 }, "geometry": { "type": "LineString", "coordinates": [ [ 116.005248073000075, -30.065074237999966 ], [ 115.979970944000115, -29.72348806399998 ] ] } },
{ "type": "Feature", "properties": { "CAST(concat('2000-', lpad(CAST(\"month\" AS VARCHAR), 2, '0'), '-01 00:00:00') AS TIMESTAMP)": "2000-10-01T00:00:00", "direction": 4.2321324536306975, "line name": "MOR-TS 81", "index": 4, "capacity": "132", "weather longitude": 116.0, "weather latitude": -30.0, "latitude": -30.0, "longitude": 116.0, "avg temperature (deg C)": 18.320375706204572, "std dev temperature": 6.5836545276588518, "avg u10": -0.56103317820179643, "avg v10": 2.3631704120655255, "avg wind speed": 4.2239327767040891 }, "geometry": { "type": "LineString", "coordinates": [ [ 116.005248073000075, -30.065074237999966 ], [ 115.979970944000115, -29.72348806399998 ] ] } },
{ "type": "Feature", "properties": { "CAST(concat('2000-', lpad(CAST(\"month\" AS VARCHAR), 2, '0'), '-01 00:00:00') AS TIMESTAMP)": "2000-06-01T00:00:00", "direction": 0.2310166195421175, "line name": "MOR-TS 81", "index": 3, "capacity": "132", "weather longitude": 116.0, "weather latitude": -30.25, "latitude": -30.25, "longitude": 116.0, "avg temperature (deg C)": 13.458477332887526, "std dev temperature": 4.28000968220692, "avg u10": -0.61590237991097907, "avg v10": -1.2699781214915766, "avg wind speed": 3.8240867580072946 }, "geometry": { "type": "LineString", "coordinates": [ [ 116.006344639000076, -30.337038494999945 ], [ 116.005248073000075, -30.065074237999966 ] ] } },
{ "type": "Feature", "properties": { "CAST(concat('2000-', lpad(CAST(\"month\" AS VARCHAR), 2, '0'), '-01 00:00:00') AS TIMESTAMP)": "2000-10-01T00:00:00", "direction": 0.2310166195421175, "line name": "MOR-TS 81", "index": 3, "capacity": "132", "weather longitude": 116.0, "weather latitude": -30.25, "latitude": -30.25, "longitude": 116.0, "avg temperature (deg C)": 17.852699814698838, "std dev temperature": 6.6024244101034917, "avg u10": -0.35578227071337698, "avg v10": 2.2588884264235078, "avg wind speed": 4.0551623415122702 }, "geometry": { "type": "LineString", "coordinates": [ [ 116.006344639000076, -30.337038494999945 ], [ 116.005248073000075, -30.065074237999966 ] ] } },
{ "type": "Feature", "properties": { "CAST(concat('2000-', lpad(CAST(\"month\" AS VARCHAR), 2, '0'), '-01 00:00:00') AS TIMESTAMP)": "2000-01-01T00:00:00", "direction": 5.6999399447789756, "line name": "MOR-TS 81", "index": 2, "capacity": "132", "weather longitude": 116.0, "weather latitude": -30.5, "latitude": -30.5, "longitude": 116.0, "avg temperature (deg C)": 24.029216499059771, "std dev temperature": 5.2770302627436569, "avg u10": -1.8562710717715694, "avg v10": 1.5020141630229531, "avg wind speed": 4.2682037261336276 }, "geometry": { "type": "LineString", "coordinates": [ [ 116.027286272000083, -30.546848825999973 ], [ 116.006344639000076, -30.337038494999945 ] ] } },
{ "type": "Feature", "properties": { "CAST(concat('2000-', lpad(CAST(\"month\" AS VARCHAR), 2, '0'), '-01 00:00:00') AS TIMESTAMP)": "2000-12-01T00:00:00", "direction": 5.6999399447789756, "line name": "MOR-TS 81", "index": 2, "capacity": "132", "weather longitude": 116.0, "weather latitude": -30.5, "latitude": -30.5, "longitude": 116.0, "avg temperature (deg C)": 24.732253242502054, "std dev temperature": 6.9854879641605292, "avg u10": -0.76972951352515562, "avg v10": 3.0473997424603954, "avg wind speed": 4.6156490945705242 }, "geometry": { "type": "LineString", "coordinates": [ [ 116.027286272000083, -30.546848825999973 ], [ 116.006344639000076, -30.337038494999945 ] ] } },
{ "type": "Feature", "properties": { "CAST(concat('2000-', lpad(CAST(\"month\" AS VARCHAR), 2, '0'), '-01 00:00:00') AS TIMESTAMP)": "2000-08-01T00:00:00", "direction": 0.73014291132903963, "line name": "MOR-TS 81", "index": 1, "capacity": "132", "weather longitude": 116.0, "weather latitude": -30.75, "latitude": -30.75, "longitude": 116.0, "avg temperature (deg C)": 11.299397021473396, "std dev temperature": 3.8587667887839778, "avg u10": 0.66577314130875909, "avg v10": -0.011827674790784094, "avg wind speed": 3.6790829424447535 }, "geometry": { "type": "LineString", "coordinates": [ [ 116.028364975000045, -30.63149223299996 ], [ 116.027286272000083, -30.546848825999973 ] ] } },
{ "type": "Feature", "properties": { "CAST(concat('2000-', lpad(CAST(\"month\" AS VARCHAR), 2, '0'), '-01 00:00:00') AS TIMESTAMP)": "2000-09-01T00:00:00", "direction": 0.73014291132903963, "line name": "MOR-TS 81", "index": 1, "capacity": "132", "weather longitude": 116.0, "weather latitude": -30.75, "latitude": -30.75, "longitude": 116.0, "avg temperature (deg C)": 14.239894744853075, "std dev temperature": 4.8129309950262282, "avg u10": 1.2452243979582016, "avg v10": 0.84187539561315394, "avg wind speed": 3.3997800484326128 }, "geometry": { "type": "LineString", "coordinates": [ [ 116.028364975000045, -30.63149223299996 ], [ 116.027286272000083, -30.546848825999973 ] ] } },
{ "type": "Feature", "properties": { "CAST(concat('2000-', lpad(CAST(\"month\" AS VARCHAR), 2, '0'), '-01 00:00:00') AS TIMESTAMP)": "2000-08-01T00:00:00", "direction": 6.5028354634843026, "line name": "MOR-TS 81", "index": 5, "capacity": "132", "weather longitude": 116.0, "weather latitude": -29.75, "latitude": -29.75, "longitude": 116.0, "avg temperature (deg C)": 11.647508243828838, "std dev temperature": 4.185423426861389, "avg u10": 0.41232507987845501, "avg v10": 0.33705203882183005, "avg wind speed": 3.6251920551028385 }, "geometry": { "type": "LineString", "coordinates": [ [ 115.979970944000115, -29.72348806399998 ], [ 115.971183901000018, -29.646399095999982 ] ] } },
{ "type": "Feature", "properties": { "CAST(concat('2000-', lpad(CAST(\"month\" AS VARCHAR), 2, '0'), '-01 00:00:00') AS TIMESTAMP)": "2000-09-01T00:00:00", "direction": 6.5028354634843026, "line name": "MOR-TS 81", "index": 5, "capacity": "132", "weather longitude": 116.0, "weather latitude": -29.75, "latitude": -29.75, "longitude": 116.0, "avg temperature (deg C)": 14.995068589329037, "std dev temperature": 5.3326786508646427, "avg u10": 0.89403306730297782, "avg v10": 1.3631417850015122, "avg wind speed": 3.4503987953169739 }, "geometry": { "type": "LineString", "coordinates": [ [ 115.979970944000115, -29.72348806399998 ], [ 115.971183901000018, -29.646399095999982 ] ] } },
{ "type": "Feature", "properties": { "CAST(concat('2000-', lpad(CAST(\"month\" AS VARCHAR), 2, '0'), '-01 00:00:00') AS TIMESTAMP)": "2000-05-01T00:00:00", "direction": 82.59286729294638, "line name": "MOR-TS 81", "index": 8, "capacity": "132", "weather longitude": 115.75, "weather latitude": -29.5, "latitude": -29.5, "longitude": 115.75, "avg temperature (deg C)": 15.083040300147161, "std dev temperature": 4.7280032725270509, "avg u10": -2.6113823880646163, "avg v10": -0.10020706181613681, "avg wind speed": 3.9949953327133083 }, "geometry": { "type": "LineString", "coordinates": [ [ 115.803076840000017, -29.522524983999972 ], [ 115.768973667000068, -29.518091437999942 ] ] } },
{ "type": "Feature", "properties": { "CAST(concat('2000-', lpad(CAST(\"month\" AS VARCHAR), 2, '0'), '-01 00:00:00') AS TIMESTAMP)": "2000-05-01T00:00:00", "direction": 65.056578578683059, "line name": "MOR-TS 81", "index": 7, "capacity": "132", "weather longitude": 115.75, "weather latitude": -29.5, "latitude": -29.5, "longitude": 115.75, "avg temperature (deg C)": 15.083040300147161, "std dev temperature": 4.7280032725270509, "avg u10": -2.6113823880646163, "avg v10": -0.10020706181613681, "avg wind speed": 3.9949953327133083 }, "geometry": { "type": "LineString", "coordinates": [ [ 115.856799913000032, -29.547511907999933 ], [ 115.803076840000017, -29.522524983999972 ] ] } },
{ "type": "Feature", "properties": { "CAST(concat('2000-', lpad(CAST(\"month\" AS VARCHAR), 2, '0'), '-01 00:00:00') AS TIMESTAMP)": "2000-04-01T00:00:00", "direction": 49.155946102101836, "line name": "MOR-TS 81", "index": 6, "capacity": "132", "weather longitude": 116.0, "weather latitude": -29.75, "latitude": -29.75, "longitude": 116.0, "avg temperature (deg C)": 19.503696336953624, "std dev temperature": 5.0912883854954174, "avg u10": -1.8560193696591183, "avg v10": 0.2984072675460745, "avg wind speed": 4.033495835678246 }, "geometry": { "type": "LineString", "coordinates": [ [ 115.971183901000018, -29.646399095999982 ], [ 115.856799913000032, -29.547511907999933 ] ] } },
{ "type": "Feature", "properties": { "CAST(concat('2000-', lpad(CAST(\"month\" AS VARCHAR), 2, '0'), '-01 00:00:00') AS TIMESTAMP)": "2000-07-01T00:00:00", "direction": 49.155946102101836, "line name": "MOR-TS 81", "index": 6, "capacity": "132", "weather longitude": 116.0, "weather latitude": -29.75, "latitude": -29.75, "longitude": 116.0, "avg temperature (deg C)": 12.388921261140013, "std dev temperature": 3.3183196126512953, "avg u10": 1.3407593404600187, "avg v10": -0.69747422393182845, "avg wind speed": 3.7831219830443854 }, "geometry": { "type": "LineString", "coordinates": [ [ 115.971183901000018, -29.646399095999982 ], [ 115.856799913000032, -29.547511907999933 ] ] } },
{ "type": "Feature", "properties": { "CAST(concat('2000-', lpad(CAST(\"month\" AS VARCHAR), 2, '0'), '-01 00:00:00') AS TIMESTAMP)": "2000-03-01T00:00:00", "direction": 5.6999399447789756, "line name": "MOR-TS 81", "index": 2, "capacity": "132", "weather longitude": 116.0, "weather latitude": -30.5, "latitude": -30.5, "longitude": 116.0, "avg temperature (deg C)": 22.347229447212044, "std dev temperature": 5.0681262236255771, "avg u10": -3.0947460396549094, "avg v10": 1.2717678535680865, "avg wind speed": 4.5262428807579678 }, "geometry": { "type": "LineString", "coordinates": [ [ 116.027286272000083, -30.546848825999973 ], [ 116.006344639000076, -30.337038494999945 ] ] } },
{ "type": "Feature", "properties": { "CAST(concat('2000-', lpad(CAST(\"month\" AS VARCHAR), 2, '0'), '-01 00:00:00') AS TIMESTAMP)": "2000-11-01T00:00:00", "direction": 5.6999399447789756, "line name": "MOR-TS 81", "index": 2, "capacity": "132", "weather longitude": 116.0, "weather latitude": -30.5, "latitude": -30.5, "longitude": 116.0, "avg temperature (deg C)": 20.496691251330674, "std dev temperature": 6.3834130893456296, "avg u10": -0.069659404789467694, "avg v10": 1.7129929186082491, "avg wind speed": 4.2879821879673345 }, "geometry": { "type": "LineString", "coordinates": [ [ 116.027286272000083, -30.546848825999973 ], [ 116.006344639000076, -30.337038494999945 ] ] } },
{ "type": "Feature", "properties": { "CAST(concat('2000-', lpad(CAST(\"month\" AS VARCHAR), 2, '0'), '-01 00:00:00') AS TIMESTAMP)": "2000-04-01T00:00:00", "direction": 0.73014291132903963, "line name": "MOR-TS 81", "index": 1, "capacity": "132", "weather longitude": 116.0, "weather latitude": -30.75, "latitude": -30.75, "longitude": 116.0, "avg temperature (deg C)": 19.080090292168734, "std dev temperature": 5.0318218322419108, "avg u10": -1.6729296332469434, "avg v10": 0.14737606423555513, "avg wind speed": 4.0774825830528467 }, "geometry": { "type": "LineString", "coordinates": [ [ 116.028364975000045, -30.63149223299996 ], [ 116.027286272000083, -30.546848825999973 ] ] } },
{ "type": "Feature", "properties": { "CAST(concat('2000-', lpad(CAST(\"month\" AS VARCHAR), 2, '0'), '-01 00:00:00') AS TIMESTAMP)": "2000-07-01T00:00:00", "direction": 0.73014291132903963, "line name": "MOR-TS 81", "index": 1, "capacity": "132", "weather longitude": 116.0, "weather latitude": -30.75, "latitude": -30.75, "longitude": 116.0, "avg temperature (deg C)": 12.36034738064626, "std dev temperature": 2.9156289774854542, "avg u10": 1.6882227713065494, "avg v10": -1.0755307206103142, "avg wind speed": 4.169727553807224 }, "geometry": { "type": "LineString", "coordinates": [ [ 116.028364975000045, -30.63149223299996 ], [ 116.027286272000083, -30.546848825999973 ] ] } },
{ "type": "Feature", "properties": { "CAST(concat('2000-', lpad(CAST(\"month\" AS VARCHAR), 2, '0'), '-01 00:00:00') AS TIMESTAMP)": "2000-04-01T00:00:00", "direction": 6.5028354634843026, "line name": "MOR-TS 81", "index": 5, "capacity": "132", "weather longitude": 116.0, "weather latitude": -29.75, "latitude": -29.75, "longitude": 116.0, "avg temperature (deg C)": 19.503696336953624, "std dev temperature": 5.0912883854954174, "avg u10": -1.8560193696591183, "avg v10": 0.2984072675460745, "avg wind speed": 4.033495835678246 }, "geometry": { "type": "LineString", "coordinates": [ [ 115.979970944000115, -29.72348806399998 ], [ 115.971183901000018, -29.646399095999982 ] ] } },
{ "type": "Feature", "properties": { "CAST(concat('2000-', lpad(CAST(\"month\" AS VARCHAR), 2, '0'), '-01 00:00:00') AS TIMESTAMP)": "2000-07-01T00:00:00", "direction": 6.5028354634843026, "line name": "MOR-TS 81", "index": 5, "capacity": "132", "weather longitude": 116.0, "weather latitude": -29.75, "latitude": -29.75, "longitude": 116.0, "avg temperature (deg C)": 12.388921261140013, "std dev temperature": 3.3183196126512953, "avg u10": 1.3407593404600187, "avg v10": -0.69747422393182845, "avg wind speed": 3.7831219830443854 }, "geometry": { "type": "LineString", "coordinates": [ [ 115.979970944000115, -29.72348806399998 ], [ 115.971183901000018, -29.646399095999982 ] ] } },
{ "type": "Feature", "properties": { "CAST(concat('2000-', lpad(CAST(\"month\" AS VARCHAR), 2, '0'), '-01 00:00:00') AS TIMESTAMP)": "2000-02-01T00:00:00", "direction": 82.59286729294638, "line name": "MOR-TS 81", "index": 8, "capacity": "132", "weather longitude": 115.75, "weather latitude": -29.5, "latitude": -29.5, "longitude": 115.75, "avg temperature (deg C)": 27.164736970109232, "std dev temperature": 5.3938143512974426, "avg u10": -2.9375400334970485, "avg v10": 1.9611070530280639, "avg wind speed": 5.2560633709424573 }, "geometry": { "type": "LineString", "coordinates": [ [ 115.803076840000017, -29.522524983999972 ], [ 115.768973667000068, -29.518091437999942 ] ] } },
{ "type": "Feature", "properties": { "CAST(concat('2000-', lpad(CAST(\"month\" AS VARCHAR), 2, '0'), '-01 00:00:00') AS TIMESTAMP)": "2000-02-01T00:00:00", "direction": 65.056578578683059, "line name": "MOR-TS 81", "index": 7, "capacity": "132", "weather longitude": 115.75, "weather latitude": -29.5, "latitude": -29.5, "longitude": 115.75, "avg temperature (deg C)": 27.164736970109232, "std dev temperature": 5.3938143512974426, "avg u10": -2.9375400334970485, "avg v10": 1.9611070530280639, "avg wind speed": 5.2560633709424573 }, "geometry": { "type": "LineString", "coordinates": [ [ 115.856799913000032, -29.547511907999933 ], [ 115.803076840000017, -29.522524983999972 ] ] } },
{ "type": "Feature", "properties": { "CAST(concat('2000-', lpad(CAST(\"month\" AS VARCHAR), 2, '0'), '-01 00:00:00') AS TIMESTAMP)": "2000-05-01T00:00:00", "direction": 49.155946102101836, "line name": "MOR-TS 81", "index": 6, "capacity": "132", "weather longitude": 116.0, "weather latitude": -29.75, "latitude": -29.75, "longitude": 116.0, "avg temperature (deg C)": 14.577407790719633, "std dev temperature": 5.0136152131671512, "avg u10": -2.3015776826116525, "avg v10": -0.13907433212364226, "avg wind speed": 3.7022341311053211 }, "geometry": { "type": "LineString", "coordinates": [ [ 115.971183901000018, -29.646399095999982 ], [ 115.856799913000032, -29.547511907999933 ] ] } },
{ "type": "Feature", "properties": { "CAST(concat('2000-', lpad(CAST(\"month\" AS VARCHAR), 2, '0'), '-01 00:00:00') AS TIMESTAMP)": "2000-03-01T00:00:00", "direction": 4.2321324536306975, "line name": "MOR-TS 81", "index": 4, "capacity": "132", "weather longitude": 116.0, "weather latitude": -30.0, "latitude": -30.0, "longitude": 116.0, "avg temperature (deg C)": 22.784900539661976, "std dev temperature": 4.9475123200347779, "avg u10": -3.3912529869264318, "avg v10": 1.3117687140982524, "avg wind speed": 4.7584386369982115 }, "geometry": { "type": "LineString", "coordinates": [ [ 116.005248073000075, -30.065074237999966 ], [ 115.979970944000115, -29.72348806399998 ] ] } },
{ "type": "Feature", "properties": { "CAST(concat('2000-', lpad(CAST(\"month\" AS VARCHAR), 2, '0'), '-01 00:00:00') AS TIMESTAMP)": "2000-11-01T00:00:00", "direction": 4.2321324536306975, "line name": "MOR-TS 81", "index": 4, "capacity": "132", "weather longitude": 116.0, "weather latitude": -30.0, "latitude": -30.0, "longitude": 116.0, "avg temperature (deg C)": 21.104024634155451, "std dev temperature": 6.508535967786016, "avg u10": -0.20416887427256686, "avg v10": 1.8652823731906358, "avg wind speed": 4.3916420016637412 }, "geometry": { "type": "LineString", "coordinates": [ [ 116.005248073000075, -30.065074237999966 ], [ 115.979970944000115, -29.72348806399998 ] ] } },
{ "type": "Feature", "properties": { "CAST(concat('2000-', lpad(CAST(\"month\" AS VARCHAR), 2, '0'), '-01 00:00:00') AS TIMESTAMP)": "2000-03-01T00:00:00", "direction": 0.2310166195421175, "line name": "MOR-TS 81", "index": 3, "capacity": "132", "weather longitude": 116.0, "weather latitude": -30.25, "latitude": -30.25, "longitude": 116.0, "avg temperature (deg C)": 22.57506895830403, "std dev temperature": 5.1130623347759352, "avg u10": -3.1528751870146197, "avg v10": 1.2599838737066125, "avg wind speed": 4.542234310062141 }, "geometry": { "type": "LineString", "coordinates": [ [ 116.006344639000076, -30.337038494999945 ], [ 116.005248073000075, -30.065074237999966 ] ] } },
{ "type": "Feature", "properties": { "CAST(concat('2000-', lpad(CAST(\"month\" AS VARCHAR), 2, '0'), '-01 00:00:00') AS TIMESTAMP)": "2000-11-01T00:00:00", "direction": 0.2310166195421175, "line name": "MOR-TS 81", "index": 3, "capacity": "132", "weather longitude": 116.0, "weather latitude": -30.25, "latitude": -30.25, "longitude": 116.0, "avg temperature (deg C)": 20.782930156293503, "std dev temperature": 6.5819285808895573, "avg u10": -0.15125042202253142, "avg v10": 1.7614785525958145, "avg wind speed": 4.2720962509413036 }, "geometry": { "type": "LineString", "coordinates": [ [ 116.006344639000076, -30.337038494999945 ], [ 116.005248073000075, -30.065074237999966 ] ] } },
{ "type": "Feature", "properties": { "CAST(concat('2000-', lpad(CAST(\"month\" AS VARCHAR), 2, '0'), '-01 00:00:00') AS TIMESTAMP)": "2000-05-01T00:00:00", "direction": 0.73014291132903963, "line name": "MOR-TS 81", "index": 1, "capacity": "132", "weather longitude": 116.0, "weather latitude": -30.75, "latitude": -30.75, "longitude": 116.0, "avg temperature (deg C)": 14.379321766095586, "std dev temperature": 5.0275291918380898, "avg u10": -2.1552724689640543, "avg v10": -0.56089276985100023, "avg wind speed": 3.6352473138361701 }, "geometry": { "type": "LineString", "coordinates": [ [ 116.028364975000045, -30.63149223299996 ], [ 116.027286272000083, -30.546848825999973 ] ] } },
{ "type": "Feature", "properties": { "CAST(concat('2000-', lpad(CAST(\"month\" AS VARCHAR), 2, '0'), '-01 00:00:00') AS TIMESTAMP)": "2000-05-01T00:00:00", "direction": 6.5028354634843026, "line name": "MOR-TS 81", "index": 5, "capacity": "132", "weather longitude": 116.0, "weather latitude": -29.75, "latitude": -29.75, "longitude": 116.0, "avg temperature (deg C)": 14.577407790719633, "std dev temperature": 5.0136152131671512, "avg u10": -2.3015776826116525, "avg v10": -0.13907433212364226, "avg wind speed": 3.7022341311053211 }, "geometry": { "type": "LineString", "coordinates": [ [ 115.979970944000115, -29.72348806399998 ], [ 115.971183901000018, -29.646399095999982 ] ] } },
{ "type": "Feature", "properties": { "CAST(concat('2000-', lpad(CAST(\"month\" AS VARCHAR), 2, '0'), '-01 00:00:00') AS TIMESTAMP)": "2000-08-01T00:00:00", "direction": 82.59286729294638, "line name": "MOR-TS 81", "index": 8, "capacity": "132", "weather longitude": 115.75, "weather latitude": -29.5, "latitude": -29.5, "longitude": 115.75, "avg temperature (deg C)": 11.910090217113975, "std dev temperature": 4.007371228366706, "avg u10": 0.24341945289508221, "avg v10": 0.41917034928730756, "avg wind speed": 3.7823419225308785 }, "geometry": { "type": "LineString", "coordinates": [ [ 115.803076840000017, -29.522524983999972 ], [ 115.768973667000068, -29.518091437999942 ] ] } },
{ "type": "Feature", "properties": { "CAST(concat('2000-', lpad(CAST(\"month\" AS VARCHAR), 2, '0'), '-01 00:00:00') AS TIMESTAMP)": "2000-09-01T00:00:00", "direction": 82.59286729294638, "line name": "MOR-TS 81", "index": 8, "capacity": "132", "weather longitude": 115.75, "weather latitude": -29.5, "latitude": -29.5, "longitude": 115.75, "avg temperature (deg C)": 15.139913300721616, "std dev temperature": 5.1319361937691559, "avg u10": 0.7098227702137313, "avg v10": 1.4826460611480314, "avg wind speed": 3.5842876613780281 }, "geometry": { "type": "LineString", "coordinates": [ [ 115.803076840000017, -29.522524983999972 ], [ 115.768973667000068, -29.518091437999942 ] ] } },
{ "type": "Feature", "properties": { "CAST(concat('2000-', lpad(CAST(\"month\" AS VARCHAR), 2, '0'), '-01 00:00:00') AS TIMESTAMP)": "2000-08-01T00:00:00", "direction": 65.056578578683059, "line name": "MOR-TS 81", "index": 7, "capacity": "132", "weather longitude": 115.75, "weather latitude": -29.5, "latitude": -29.5, "longitude": 115.75, "avg temperature (deg C)": 11.910090217113975, "std dev temperature": 4.007371228366706, "avg u10": 0.24341945289508221, "avg v10": 0.41917034928730756, "avg wind speed": 3.7823419225308785 }, "geometry": { "type": "LineString", "coordinates": [ [ 115.856799913000032, -29.547511907999933 ], [ 115.803076840000017, -29.522524983999972 ] ] } },
{ "type": "Feature", "properties": { "CAST(concat('2000-', lpad(CAST(\"month\" AS VARCHAR), 2, '0'), '-01 00:00:00') AS TIMESTAMP)": "2000-09-01T00:00:00", "direction": 65.056578578683059, "line name": "MOR-TS 81", "index": 7, "capacity": "132", "weather longitude": 115.75, "weather latitude": -29.5, "latitude": -29.5, "longitude": 115.75, "avg temperature (deg C)": 15.139913300721616, "std dev temperature": 5.1319361937691559, "avg u10": 0.7098227702137313, "avg v10": 1.4826460611480314, "avg wind speed": 3.5842876613780281 }, "geometry": { "type": "LineString", "coordinates": [ [ 115.856799913000032, -29.547511907999933 ], [ 115.803076840000017, -29.522524983999972 ] ] } },
{ "type": "Feature", "properties": { "CAST(concat('2000-', lpad(CAST(\"month\" AS VARCHAR), 2, '0'), '-01 00:00:00') AS TIMESTAMP)": "2000-06-01T00:00:00", "direction": 49.155946102101836, "line name": "MOR-TS 81", "index": 6, "capacity": "132", "weather longitude": 116.0, "weather latitude": -29.75, "latitude": -29.75, "longitude": 116.0, "avg temperature (deg C)": 13.711178993871556, "std dev temperature": 4.1729997450999203, "avg u10": -0.88469700094549453, "avg v10": -1.1187340274119943, "avg wind speed": 3.9045180288450996 }, "geometry": { "type": "LineString", "coordinates": [ [ 115.971183901000018, -29.646399095999982 ], [ 115.856799913000032, -29.547511907999933 ] ] } },
{ "type": "Feature", "properties": { "CAST(concat('2000-', lpad(CAST(\"month\" AS VARCHAR), 2, '0'), '-01 00:00:00') AS TIMESTAMP)": "2000-10-01T00:00:00", "direction": 49.155946102101836, "line name": "MOR-TS 81", "index": 6, "capacity": "132", "weather longitude": 116.0, "weather latitude": -29.75, "latitude": -29.75, "longitude": 116.0, "avg temperature (deg C)": 18.637897737554283, "std dev temperature": 6.4876430533877869, "avg u10": -0.64782211126017974, "avg v10": 2.3627232583020636, "avg wind speed": 4.2629747275952417 }, "geometry": { "type": "LineString", "coordinates": [ [ 115.971183901000018, -29.646399095999982 ], [ 115.856799913000032, -29.547511907999933 ] ] } },
{ "type": "Feature", "properties": { "CAST(concat('2000-', lpad(CAST(\"month\" AS VARCHAR), 2, '0'), '-01 00:00:00') AS TIMESTAMP)": "2000-08-01T00:00:00", "direction": 4.2321324536306975, "line name": "MOR-TS 81", "index": 4, "capacity": "132", "weather longitude": 116.0, "weather latitude": -30.0, "latitude": -30.0, "longitude": 116.0, "avg temperature (deg C)": 11.542308073115862, "std dev temperature": 4.1907590059069655, "avg u10": 0.48735972676237871, "avg v10": 0.25196902499488893, "avg wind speed": 3.6343730965377805 }, "geometry": { "type": "LineString", "coordinates": [ [ 116.005248073000075, -30.065074237999966 ], [ 115.979970944000115, -29.72348806399998 ] ] } },
{ "type": "Feature", "properties": { "CAST(concat('2000-', lpad(CAST(\"month\" AS VARCHAR), 2, '0'), '-01 00:00:00') AS TIMESTAMP)": "2000-09-01T00:00:00", "direction": 4.2321324536306975, "line name": "MOR-TS 81", "index": 4, "capacity": "132", "weather longitude": 116.0, "weather latitude": -30.0, "latitude": -30.0, "longitude": 116.0, "avg temperature (deg C)": 14.800610724854096, "std dev temperature": 5.323827407826542, "avg u10": 0.96735519050397101, "avg v10": 1.27072618855093, "avg wind speed": 3.4612884331245848 }, "geometry": { "type": "LineString", "coordinates": [ [ 116.005248073000075, -30.065074237999966 ], [ 115.979970944000115, -29.72348806399998 ] ] } },
{ "type": "Feature", "properties": { "CAST(concat('2000-', lpad(CAST(\"month\" AS VARCHAR), 2, '0'), '-01 00:00:00') AS TIMESTAMP)": "2000-08-01T00:00:00", "direction": 0.2310166195421175, "line name": "MOR-TS 81", "index": 3, "capacity": "132", "weather longitude": 116.0, "weather latitude": -30.25, "latitude": -30.25, "longitude": 116.0, "avg temperature (deg C)": 11.359495601075082, "std dev temperature": 4.2163635735167686, "avg u10": 0.58576353562039596, "avg v10": 0.19504561180908825, "avg wind speed": 3.5722560831980954 }, "geometry": { "type": "LineString", "coordinates": [ [ 116.006344639000076, -30.337038494999945 ], [ 116.005248073000075, -30.065074237999966 ] ] } },
{ "type": "Feature", "properties": { "CAST(concat('2000-', lpad(CAST(\"month\" AS VARCHAR), 2, '0'), '-01 00:00:00') AS TIMESTAMP)": "2000-09-01T00:00:00", "direction": 0.2310166195421175, "line name": "MOR-TS 81", "index": 3, "capacity": "132", "weather longitude": 116.0, "weather latitude": -30.25, "latitude": -30.25, "longitude": 116.0, "avg temperature (deg C)": 14.542116368845257, "std dev temperature": 5.2834756504405078, "avg u10": 1.0857271456634081, "avg v10": 1.1639504891933445, "avg wind speed": 3.3799864025003421 }, "geometry": { "type": "LineString", "coordinates": [ [ 116.006344639000076, -30.337038494999945 ], [ 116.005248073000075, -30.065074237999966 ] ] } },
{ "type": "Feature", "properties": { "CAST(concat('2000-', lpad(CAST(\"month\" AS VARCHAR), 2, '0'), '-01 00:00:00') AS TIMESTAMP)": "2000-02-01T00:00:00", "direction": 5.6999399447789756, "line name": "MOR-TS 81", "index": 2, "capacity": "132", "weather longitude": 116.0, "weather latitude": -30.5, "latitude": -30.5, "longitude": 116.0, "avg temperature (deg C)": 25.358604070663773, "std dev temperature": 5.5097598503831362, "avg u10": -2.450616129369005, "avg v10": 2.000010067601933, "avg wind speed": 4.868550019112444 }, "geometry": { "type": "LineString", "coordinates": [ [ 116.027286272000083, -30.546848825999973 ], [ 116.006344639000076, -30.337038494999945 ] ] } },
{ "type": "Feature", "properties": { "CAST(concat('2000-', lpad(CAST(\"month\" AS VARCHAR), 2, '0'), '-01 00:00:00') AS TIMESTAMP)": "2000-06-01T00:00:00", "direction": 0.73014291132903963, "line name": "MOR-TS 81", "index": 1, "capacity": "132", "weather longitude": 116.0, "weather latitude": -30.75, "latitude": -30.75, "longitude": 116.0, "avg temperature (deg C)": 13.623697122149849, "std dev temperature": 4.1029027977933401, "avg u10": -0.58229070450560882, "avg v10": -1.5255482390838235, "avg wind speed": 4.0175373539097405 }, "geometry": { "type": "LineString", "coordinates": [ [ 116.028364975000045, -30.63149223299996 ], [ 116.027286272000083, -30.546848825999973 ] ] } },
{ "type": "Feature", "properties": { "CAST(concat('2000-', lpad(CAST(\"month\" AS VARCHAR), 2, '0'), '-01 00:00:00') AS TIMESTAMP)": "2000-10-01T00:00:00", "direction": 0.73014291132903963, "line name": "MOR-TS 81", "index": 1, "capacity": "132", "weather longitude": 116.0, "weather latitude": -30.75, "latitude": -30.75, "longitude": 116.0, "avg temperature (deg C)": 17.366633613541183, "std dev temperature": 6.3602311434208474, "avg u10": -0.18474665236036919, "avg v10": 2.0493830301705329, "avg wind speed": 3.9666662397352317 }, "geometry": { "type": "LineString", "coordinates": [ [ 116.028364975000045, -30.63149223299996 ], [ 116.027286272000083, -30.546848825999973 ] ] } },
{ "type": "Feature", "properties": { "CAST(concat('2000-', lpad(CAST(\"month\" AS VARCHAR), 2, '0'), '-01 00:00:00') AS TIMESTAMP)": "2000-06-01T00:00:00", "direction": 6.5028354634843026, "line name": "MOR-TS 81", "index": 5, "capacity": "132", "weather longitude": 116.0, "weather latitude": -29.75, "latitude": -29.75, "longitude": 116.0, "avg temperature (deg C)": 13.711178993871556, "std dev temperature": 4.1729997450999203, "avg u10": -0.88469700094549453, "avg v10": -1.1187340274119943, "avg wind speed": 3.9045180288450996 }, "geometry": { "type": "LineString", "coordinates": [ [ 115.979970944000115, -29.72348806399998 ], [ 115.971183901000018, -29.646399095999982 ] ] } },
{ "type": "Feature", "properties": { "CAST(concat('2000-', lpad(CAST(\"month\" AS VARCHAR), 2, '0'), '-01 00:00:00') AS TIMESTAMP)": "2000-10-01T00:00:00", "direction": 6.5028354634843026, "line name": "MOR-TS 81", "index": 5, "capacity": "132", "weather longitude": 116.0, "weather latitude": -29.75, "latitude": -29.75, "longitude": 116.0, "avg temperature (deg C)": 18.637897737554283, "std dev temperature": 6.4876430533877869, "avg u10": -0.64782211126017974, "avg v10": 2.3627232583020636, "avg wind speed": 4.2629747275952417 }, "geometry": { "type": "LineString", "coordinates": [ [ 115.979970944000115, -29.72348806399998 ], [ 115.971183901000018, -29.646399095999982 ] ] } },
{ "type": "Feature", "properties": { "CAST(concat('2000-', lpad(CAST(\"month\" AS VARCHAR), 2, '0'), '-01 00:00:00') AS TIMESTAMP)": "2000-03-01T00:00:00", "direction": 82.59286729294638, "line name": "MOR-TS 81", "index": 8, "capacity": "132", "weather longitude": 115.75, "weather latitude": -29.5, "latitude": -29.5, "longitude": 115.75, "avg temperature (deg C)": 23.248401515833848, "std dev temperature": 4.6879213634055583, "avg u10": -3.7709610416813986, "avg v10": 1.3843729967618117, "avg wind speed": 5.0990503412783266 }, "geometry": { "type": "LineString", "coordinates": [ [ 115.803076840000017, -29.522524983999972 ], [ 115.768973667000068, -29.518091437999942 ] ] } },
{ "type": "Feature", "properties": { "CAST(concat('2000-', lpad(CAST(\"month\" AS VARCHAR), 2, '0'), '-01 00:00:00') AS TIMESTAMP)": "2000-11-01T00:00:00", "direction": 82.59286729294638, "line name": "MOR-TS 81", "index": 8, "capacity": "132", "weather longitude": 115.75, "weather latitude": -29.5, "latitude": -29.5, "longitude": 115.75, "avg temperature (deg C)": 21.290352596539094, "std dev temperature": 6.178002739679223, "avg u10": -0.29154996949448853, "avg v10": 2.0423339836832688, "avg wind speed": 4.6533121232512915 }, "geometry": { "type": "LineString", "coordinates": [ [ 115.803076840000017, -29.522524983999972 ], [ 115.768973667000068, -29.518091437999942 ] ] } },
{ "type": "Feature", "properties": { "CAST(concat('2000-', lpad(CAST(\"month\" AS VARCHAR), 2, '0'), '-01 00:00:00') AS TIMESTAMP)": "2000-03-01T00:00:00", "direction": 65.056578578683059, "line name": "MOR-TS 81", "index": 7, "capacity": "132", "weather longitude": 115.75, "weather latitude": -29.5, "latitude": -29.5, "longitude": 115.75, "avg temperature (deg C)": 23.248401515833848, "std dev temperature": 4.6879213634055583, "avg u10": -3.7709610416813986, "avg v10": 1.3843729967618117, "avg wind speed": 5.0990503412783266 }, "geometry": { "type": "LineString", "coordinates": [ [ 115.856799913000032, -29.547511907999933 ], [ 115.803076840000017, -29.522524983999972 ] ] } },
{ "type": "Feature", "properties": { "CAST(concat('2000-', lpad(CAST(\"month\" AS VARCHAR), 2, '0'), '-01 00:00:00') AS TIMESTAMP)": "2000-11-01T00:00:00", "direction": 65.056578578683059, "line name": "MOR-TS 81", "index": 7, "capacity": "132", "weather longitude": 115.75, "weather latitude": -29.5, "latitude": -29.5, "longitude": 115.75, "avg temperature (deg C)": 21.290352596539094, "std dev temperature": 6.178002739679223, "avg u10": -0.29154996949448853, "avg v10": 2.0423339836832688, "avg wind speed": 4.6533121232512915 }, "geometry": { "type": "LineString", "coordinates": [ [ 115.856799913000032, -29.547511907999933 ], [ 115.803076840000017, -29.522524983999972 ] ] } },
{ "type": "Feature", "properties": { "CAST(concat('2000-', lpad(CAST(\"month\" AS VARCHAR), 2, '0'), '-01 00:00:00') AS TIMESTAMP)": "2000-01-01T00:00:00", "direction": 49.155946102101836, "line name": "MOR-TS 81", "index": 6, "capacity": "132", "weather longitude": 116.0, "weather latitude": -29.75, "latitude": -29.75, "longitude": 116.0, "avg temperature (deg C)": 25.14444316247608, "std dev temperature": 5.4522743205191793, "avg u10": -1.8172740067796878, "avg v10": 1.4628919042057038, "avg wind speed": 4.3279236103141319 }, "geometry": { "type": "LineString", "coordinates": [ [ 115.971183901000018, -29.646399095999982 ], [ 115.856799913000032, -29.547511907999933 ] ] } },
{ "type": "Feature", "properties": { "CAST(concat('2000-', lpad(CAST(\"month\" AS VARCHAR), 2, '0'), '-01 00:00:00') AS TIMESTAMP)": "2000-12-01T00:00:00", "direction": 49.155946102101836, "line name": "MOR-TS 81", "index": 6, "capacity": "132", "weather longitude": 116.0, "weather latitude": -29.75, "latitude": -29.75, "longitude": 116.0, "avg temperature (deg C)": 26.066171157834276, "std dev temperature": 7.0137110403763803, "avg u10": -1.1470765540036398, "avg v10": 3.0303376852215265, "avg wind speed": 4.6604391389467716 }, "geometry": { "type": "LineString", "coordinates": [ [ 115.971183901000018, -29.646399095999982 ], [ 115.856799913000032, -29.547511907999933 ] ] } },
{ "type": "Feature", "properties": { "CAST(concat('2000-', lpad(CAST(\"month\" AS VARCHAR), 2, '0'), '-01 00:00:00') AS TIMESTAMP)": "2000-02-01T00:00:00", "direction": 4.2321324536306975, "line name": "MOR-TS 81", "index": 4, "capacity": "132", "weather longitude": 116.0, "weather latitude": -30.0, "latitude": -30.0, "longitude": 116.0, "avg temperature (deg C)": 26.281269357070528, "std dev temperature": 5.5751792421324202, "avg u10": -2.6432510160113938, "avg v10": 2.0711617376869382, "avg wind speed": 4.9787733571355126 }, "geometry": { "type": "LineString", "coordinates": [ [ 116.005248073000075, -30.065074237999966 ], [ 115.979970944000115, -29.72348806399998 ] ] } },
{ "type": "Feature", "properties": { "CAST(concat('2000-', lpad(CAST(\"month\" AS VARCHAR), 2, '0'), '-01 00:00:00') AS TIMESTAMP)": "2000-02-01T00:00:00", "direction": 0.2310166195421175, "line name": "MOR-TS 81", "index": 3, "capacity": "132", "weather longitude": 116.0, "weather latitude": -30.25, "latitude": -30.25, "longitude": 116.0, "avg temperature (deg C)": 25.831075177174739, "std dev temperature": 5.6540828024176903, "avg u10": -2.4910401934635833, "avg v10": 2.0339652728994162, "avg wind speed": 4.8498878739710181 }, "geometry": { "type": "LineString", "coordinates": [ [ 116.006344639000076, -30.337038494999945 ], [ 116.005248073000075, -30.065074237999966 ] ] } },
{ "type": "Feature", "properties": { "CAST(concat('2000-', lpad(CAST(\"month\" AS VARCHAR), 2, '0'), '-01 00:00:00') AS TIMESTAMP)": "2000-08-01T00:00:00", "direction": 5.6999399447789756, "line name": "MOR-TS 81", "index": 2, "capacity": "132", "weather longitude": 116.0, "weather latitude": -30.5, "latitude": -30.5, "longitude": 116.0, "avg temperature (deg C)": 11.281508134543515, "std dev temperature": 3.9844110377983801, "avg u10": 0.64119110907369492, "avg v10": 0.10508363305478916, "avg wind speed": 3.6471389202175324 }, "geometry": { "type": "LineString", "coordinates": [ [ 116.027286272000083, -30.546848825999973 ], [ 116.006344639000076, -30.337038494999945 ] ] } },
{ "type": "Feature", "properties": { "CAST(concat('2000-', lpad(CAST(\"month\" AS VARCHAR), 2, '0'), '-01 00:00:00') AS TIMESTAMP)": "2000-09-01T00:00:00", "direction": 5.6999399447789756, "line name": "MOR-TS 81", "index": 2, "capacity": "132", "weather longitude": 116.0, "weather latitude": -30.5, "latitude": -30.5, "longitude": 116.0, "avg temperature (deg C)": 14.285013651280565, "std dev temperature": 4.9550887178203409, "avg u10": 1.1803718201501845, "avg v10": 1.0277653143568848, "avg wind speed": 3.4104341663392952 }, "geometry": { "type": "LineString", "coordinates": [ [ 116.027286272000083, -30.546848825999973 ], [ 116.006344639000076, -30.337038494999945 ] ] } },
{ "type": "Feature", "properties": { "CAST(concat('2000-', lpad(CAST(\"month\" AS VARCHAR), 2, '0'), '-01 00:00:00') AS TIMESTAMP)": "2000-01-01T00:00:00", "direction": 0.73014291132903963, "line name": "MOR-TS 81", "index": 1, "capacity": "132", "weather longitude": 116.0, "weather latitude": -30.75, "latitude": -30.75, "longitude": 116.0, "avg temperature (deg C)": 24.000994937170162, "std dev temperature": 5.3467940532873444, "avg u10": -1.9898411476789779, "avg v10": 1.4483843514213268, "avg wind speed": 4.3603677800775671 }, "geometry": { "type": "LineString", "coordinates": [ [ 116.028364975000045, -30.63149223299996 ], [ 116.027286272000083, -30.546848825999973 ] ] } },
{ "type": "Feature", "properties": { "CAST(concat('2000-', lpad(CAST(\"month\" AS VARCHAR), 2, '0'), '-01 00:00:00') AS TIMESTAMP)": "2000-12-01T00:00:00", "direction": 0.73014291132903963, "line name": "MOR-TS 81", "index": 1, "capacity": "132", "weather longitude": 116.0, "weather latitude": -30.75, "latitude": -30.75, "longitude": 116.0, "avg temperature (deg C)": 24.545870688771799, "std dev temperature": 7.0338615613107551, "avg u10": -0.72263370154438411, "avg v10": 2.9289372545138823, "avg wind speed": 4.583824797698612 }, "geometry": { "type": "LineString", "coordinates": [ [ 116.028364975000045, -30.63149223299996 ], [ 116.027286272000083, -30.546848825999973 ] ] } },
{ "type": "Feature", "properties": { "CAST(concat('2000-', lpad(CAST(\"month\" AS VARCHAR), 2, '0'), '-01 00:00:00') AS TIMESTAMP)": "2000-01-01T00:00:00", "direction": 6.5028354634843026, "line name": "MOR-TS 81", "index": 5, "capacity": "132", "weather longitude": 116.0, "weather latitude": -29.75, "latitude": -29.75, "longitude": 116.0, "avg temperature (deg C)": 25.14444316247608, "std dev temperature": 5.4522743205191793, "avg u10": -1.8172740067796878, "avg v10": 1.4628919042057038, "avg wind speed": 4.3279236103141319 }, "geometry": { "type": "LineString", "coordinates": [ [ 115.979970944000115, -29.72348806399998 ], [ 115.971183901000018, -29.646399095999982 ] ] } },
{ "type": "Feature", "properties": { "CAST(concat('2000-', lpad(CAST(\"month\" AS VARCHAR), 2, '0'), '-01 00:00:00') AS TIMESTAMP)": "2000-12-01T00:00:00", "direction": 6.5028354634843026, "line name": "MOR-TS 81", "index": 5, "capacity": "132", "weather longitude": 116.0, "weather latitude": -29.75, "latitude": -29.75, "longitude": 116.0, "avg temperature (deg C)": 26.066171157834276, "std dev temperature": 7.0137110403763803, "avg u10": -1.1470765540036398, "avg v10": 3.0303376852215265, "avg wind speed": 4.6604391389467716 }, "geometry": { "type": "LineString", "coordinates": [ [ 115.979970944000115, -29.72348806399998 ], [ 115.971183901000018, -29.646399095999982 ] ] } },
{ "type": "Feature", "properties": { "CAST(concat('2000-', lpad(CAST(\"month\" AS VARCHAR), 2, '0'), '-01 00:00:00') AS TIMESTAMP)": "2000-03-01T00:00:00", "direction": 49.155946102101836, "line name": "MOR-TS 81", "index": 6, "capacity": "132", "weather longitude": 116.0, "weather latitude": -29.75, "latitude": -29.75, "longitude": 116.0, "avg temperature (deg C)": 22.962363300205141, "std dev temperature": 4.7815326981198911, "avg u10": -3.4498840116355116, "avg v10": 1.280312740258698, "avg wind speed": 4.8002464452112408 }, "geometry": { "type": "LineString", "coordinates": [ [ 115.971183901000018, -29.646399095999982 ], [ 115.856799913000032, -29.547511907999933 ] ] } },
{ "type": "Feature", "properties": { "CAST(concat('2000-', lpad(CAST(\"month\" AS VARCHAR), 2, '0'), '-01 00:00:00') AS TIMESTAMP)": "2000-11-01T00:00:00", "direction": 49.155946102101836, "line name": "MOR-TS 81", "index": 6, "capacity": "132", "weather longitude": 116.0, "weather latitude": -29.75, "latitude": -29.75, "longitude": 116.0, "avg temperature (deg C)": 21.302471033815209, "std dev temperature": 6.3771903468519557, "avg u10": -0.22009133149659013, "avg v10": 1.9222645445982478, "avg wind speed": 4.4447010449827635 }, "geometry": { "type": "LineString", "coordinates": [ [ 115.971183901000018, -29.646399095999982 ], [ 115.856799913000032, -29.547511907999933 ] ] } },
{ "type": "Feature", "properties": { "CAST(concat('2000-', lpad(CAST(\"month\" AS VARCHAR), 2, '0'), '-01 00:00:00') AS TIMESTAMP)": "2000-05-01T00:00:00", "direction": 4.2321324536306975, "line name": "MOR-TS 81", "index": 4, "capacity": "132", "weather longitude": 116.0, "weather latitude": -30.0, "latitude": -30.0, "longitude": 116.0, "avg temperature (deg C)": 14.433933554606824, "std dev temperature": 5.1642227036739685, "avg u10": -2.2519107450037641, "avg v10": -0.19643935584443231, "avg wind speed": 3.6712347928837143 }, "geometry": { "type": "LineString", "coordinates": [ [ 116.005248073000075, -30.065074237999966 ], [ 115.979970944000115, -29.72348806399998 ] ] } },
{ "type": "Feature", "properties": { "CAST(concat('2000-', lpad(CAST(\"month\" AS VARCHAR), 2, '0'), '-01 00:00:00') AS TIMESTAMP)": "2000-05-01T00:00:00", "direction": 0.2310166195421175, "line name": "MOR-TS 81", "index": 3, "capacity": "132", "weather longitude": 116.0, "weather latitude": -30.25, "latitude": -30.25, "longitude": 116.0, "avg temperature (deg C)": 14.230922284243718, "std dev temperature": 5.2697385358427509, "avg u10": -2.1028890206238771, "avg v10": -0.28619253965959385, "avg wind speed": 3.5375659985679668 }, "geometry": { "type": "LineString", "coordinates": [ [ 116.006344639000076, -30.337038494999945 ], [ 116.005248073000075, -30.065074237999966 ] ] } },
{ "type": "Feature", "properties": { "CAST(concat('2000-', lpad(CAST(\"month\" AS VARCHAR), 2, '0'), '-01 00:00:00') AS TIMESTAMP)": "2000-04-01T00:00:00", "direction": 5.6999399447789756, "line name": "MOR-TS 81", "index": 2, "capacity": "132", "weather longitude": 116.0, "weather latitude": -30.5, "latitude": -30.5, "longitude": 116.0, "avg temperature (deg C)": 19.079256551636718, "std dev temperature": 5.0742115806241026, "avg u10": -1.6599521206122376, "avg v10": 0.22671176639489549, "avg wind speed": 4.0205315879960795 }, "geometry": { "type": "LineString", "coordinates": [ [ 116.027286272000083, -30.546848825999973 ], [ 116.006344639000076, -30.337038494999945 ] ] } },
{ "type": "Feature", "properties": { "CAST(concat('2000-', lpad(CAST(\"month\" AS VARCHAR), 2, '0'), '-01 00:00:00') AS TIMESTAMP)": "2000-07-01T00:00:00", "direction": 5.6999399447789756, "line name": "MOR-TS 81", "index": 2, "capacity": "132", "weather longitude": 116.0, "weather latitude": -30.5, "latitude": -30.5, "longitude": 116.0, "avg temperature (deg C)": 12.280105315540368, "std dev temperature": 3.0082244080615741, "avg u10": 1.6175536607314094, "avg v10": -0.96325539951071437, "avg wind speed": 4.0177117362308037 }, "geometry": { "type": "LineString", "coordinates": [ [ 116.027286272000083, -30.546848825999973 ], [ 116.006344639000076, -30.337038494999945 ] ] } },
{ "type": "Feature", "properties": { "CAST(concat('2000-', lpad(CAST(\"month\" AS VARCHAR), 2, '0'), '-01 00:00:00') AS TIMESTAMP)": "2000-03-01T00:00:00", "direction": 0.73014291132903963, "line name": "MOR-TS 81", "index": 1, "capacity": "132", "weather longitude": 116.0, "weather latitude": -30.75, "latitude": -30.75, "longitude": 116.0, "avg temperature (deg C)": 22.337431863646884, "std dev temperature": 5.1948787010281263, "avg u10": -3.0831311638552696, "avg v10": 1.2278913524641173, "avg wind speed": 4.5279357796696802 }, "geometry": { "type": "LineString", "coordinates": [ [ 116.028364975000045, -30.63149223299996 ], [ 116.027286272000083, -30.546848825999973 ] ] } },
{ "type": "Feature", "properties": { "CAST(concat('2000-', lpad(CAST(\"month\" AS VARCHAR), 2, '0'), '-01 00:00:00') AS TIMESTAMP)": "2000-11-01T00:00:00", "direction": 0.73014291132903963, "line name": "MOR-TS 81", "index": 1, "capacity": "132", "weather longitude": 116.0, "weather latitude": -30.75, "latitude": -30.75, "longitude": 116.0, "avg temperature (deg C)": 20.417813929813292, "std dev temperature": 6.3648951243719578, "avg u10": -0.058327233314207957, "avg v10": 1.587166836754365, "avg wind speed": 4.2786208717926959 }, "geometry": { "type": "LineString", "coordinates": [ [ 116.028364975000045, -30.63149223299996 ], [ 116.027286272000083, -30.546848825999973 ] ] } },
{ "type": "Feature", "properties": { "CAST(concat('2000-', lpad(CAST(\"month\" AS VARCHAR), 2, '0'), '-01 00:00:00') AS TIMESTAMP)": "2000-03-01T00:00:00", "direction": 6.5028354634843026, "line name": "MOR-TS 81", "index": 5, "capacity": "132", "weather longitude": 116.0, "weather latitude": -29.75, "latitude": -29.75, "longitude": 116.0, "avg temperature (deg C)": 22.962363300205141, "std dev temperature": 4.7815326981198911, "avg u10": -3.4498840116355116, "avg v10": 1.280312740258698, "avg wind speed": 4.8002464452112408 }, "geometry": { "type": "LineString", "coordinates": [ [ 115.979970944000115, -29.72348806399998 ], [ 115.971183901000018, -29.646399095999982 ] ] } },
{ "type": "Feature", "properties": { "CAST(concat('2000-', lpad(CAST(\"month\" AS VARCHAR), 2, '0'), '-01 00:00:00') AS TIMESTAMP)": "2000-11-01T00:00:00", "direction": 6.5028354634843026, "line name": "MOR-TS 81", "index": 5, "capacity": "132", "weather longitude": 116.0, "weather latitude": -29.75, "latitude": -29.75, "longitude": 116.0, "avg temperature (deg C)": 21.302471033815209, "std dev temperature": 6.3771903468519557, "avg u10": -0.22009133149659013, "avg v10": 1.9222645445982478, "avg wind speed": 4.4447010449827635 }, "geometry": { "type": "LineString", "coordinates": [ [ 115.979970944000115, -29.72348806399998 ], [ 115.971183901000018, -29.646399095999982 ] ] } },
{ "type": "Feature", "properties": { "CAST(concat('2000-', lpad(CAST(\"month\" AS VARCHAR), 2, '0'), '-01 00:00:00') AS TIMESTAMP)": "2000-06-01T00:00:00", "direction": 82.59286729294638, "line name": "MOR-TS 81", "index": 8, "capacity": "132", "weather longitude": 115.75, "weather latitude": -29.5, "latitude": -29.5, "longitude": 115.75, "avg temperature (deg C)": 14.098265712294904, "std dev temperature": 4.0167730421981958, "avg u10": -1.1164431489057614, "avg v10": -1.040473280436359, "avg wind speed": 4.1053180795052517 }, "geometry": { "type": "LineString", "coordinates": [ [ 115.803076840000017, -29.522524983999972 ], [ 115.768973667000068, -29.518091437999942 ] ] } },
{ "type": "Feature", "properties": { "CAST(concat('2000-', lpad(CAST(\"month\" AS VARCHAR), 2, '0'), '-01 00:00:00') AS TIMESTAMP)": "2000-10-01T00:00:00", "direction": 82.59286729294638, "line name": "MOR-TS 81", "index": 8, "capacity": "132", "weather longitude": 115.75, "weather latitude": -29.5, "latitude": -29.5, "longitude": 115.75, "avg temperature (deg C)": 18.864275066317077, "std dev temperature": 6.2626788548766994, "avg u10": -0.80547433363006793, "avg v10": 2.5148165133922338, "avg wind speed": 4.4247677009435877 }, "geometry": { "type": "LineString", "coordinates": [ [ 115.803076840000017, -29.522524983999972 ], [ 115.768973667000068, -29.518091437999942 ] ] } },
{ "type": "Feature", "properties": { "CAST(concat('2000-', lpad(CAST(\"month\" AS VARCHAR), 2, '0'), '-01 00:00:00') AS TIMESTAMP)": "2000-06-01T00:00:00", "direction": 65.056578578683059, "line name": "MOR-TS 81", "index": 7, "capacity": "132", "weather longitude": 115.75, "weather latitude": -29.5, "latitude": -29.5, "longitude": 115.75, "avg temperature (deg C)": 14.098265712294904, "std dev temperature": 4.0167730421981958, "avg u10": -1.1164431489057614, "avg v10": -1.040473280436359, "avg wind speed": 4.1053180795052517 }, "geometry": { "type": "LineString", "coordinates": [ [ 115.856799913000032, -29.547511907999933 ], [ 115.803076840000017, -29.522524983999972 ] ] } },
{ "type": "Feature", "properties": { "CAST(concat('2000-', lpad(CAST(\"month\" AS VARCHAR), 2, '0'), '-01 00:00:00') AS TIMESTAMP)": "2000-10-01T00:00:00", "direction": 65.056578578683059, "line name": "MOR-TS 81", "index": 7, "capacity": "132", "weather longitude": 115.75, "weather latitude": -29.5, "latitude": -29.5, "longitude": 115.75, "avg temperature (deg C)": 18.864275066317077, "std dev temperature": 6.2626788548766994, "avg u10": -0.80547433363006793, "avg v10": 2.5148165133922338, "avg wind speed": 4.4247677009435877 }, "geometry": { "type": "LineString", "coordinates": [ [ 115.856799913000032, -29.547511907999933 ], [ 115.803076840000017, -29.522524983999972 ] ] } },
{ "type": "Feature", "properties": { "CAST(concat('2000-', lpad(CAST(\"month\" AS VARCHAR), 2, '0'), '-01 00:00:00') AS TIMESTAMP)": "2000-04-01T00:00:00", "direction": 4.2321324536306975, "line name": "MOR-TS 81", "index": 4, "capacity": "132", "weather longitude": 116.0, "weather latitude": -30.0, "latitude": -30.0, "longitude": 116.0, "avg temperature (deg C)": 19.412396157249816, "std dev temperature": 5.2159617685674062, "avg u10": -1.7987596451441148, "avg v10": 0.29188975507791048, "avg wind speed": 4.0464106306058563 }, "geometry": { "type": "LineString", "coordinates": [ [ 116.005248073000075, -30.065074237999966 ], [ 115.979970944000115, -29.72348806399998 ] ] } },
{ "type": "Feature", "properties": { "CAST(concat('2000-', lpad(CAST(\"month\" AS VARCHAR), 2, '0'), '-01 00:00:00') AS TIMESTAMP)": "2000-07-01T00:00:00", "direction": 4.2321324536306975, "line name": "MOR-TS 81", "index": 4, "capacity": "132", "weather longitude": 116.0, "weather latitude": -30.0, "latitude": -30.0, "longitude": 116.0, "avg temperature (deg C)": 12.313379583142307, "std dev temperature": 3.281124397381999, "avg u10": 1.4405363415100534, "avg v10": -0.81726616284036235, "avg wind speed": 3.8819934571411281 }, "geometry": { "type": "LineString", "coordinates": [ [ 116.005248073000075, -30.065074237999966 ], [ 115.979970944000115, -29.72348806399998 ] ] } },
{ "type": "Feature", "properties": { "CAST(concat('2000-', lpad(CAST(\"month\" AS VARCHAR), 2, '0'), '-01 00:00:00') AS TIMESTAMP)": "2000-04-01T00:00:00", "direction": 0.2310166195421175, "line name": "MOR-TS 81", "index": 3, "capacity": "132", "weather longitude": 116.0, "weather latitude": -30.25, "latitude": -30.25, "longitude": 116.0, "avg temperature (deg C)": 19.21809360956496, "std dev temperature": 5.3026401318413905, "avg u10": -1.6659778353274952, "avg v10": 0.26691375373147724, "avg wind speed": 3.9514920654636549 }, "geometry": { "type": "LineString", "coordinates": [ [ 116.006344639000076, -30.337038494999945 ], [ 116.005248073000075, -30.065074237999966 ] ] } },
{ "type": "Feature", "properties": { "CAST(concat('2000-', lpad(CAST(\"month\" AS VARCHAR), 2, '0'), '-01 00:00:00') AS TIMESTAMP)": "2000-07-01T00:00:00", "direction": 0.2310166195421175, "line name": "MOR-TS 81", "index": 3, "capacity": "132", "weather longitude": 116.0, "weather latitude": -30.25, "latitude": -30.25, "longitude": 116.0, "avg temperature (deg C)": 12.23590556385966, "std dev temperature": 3.2337366936488139, "avg u10": 1.5085227981582243, "avg v10": -0.87582390455418624, "avg wind speed": 3.8626396790065125 }, "geometry": { "type": "LineString", "coordinates": [ [ 116.006344639000076, -30.337038494999945 ], [ 116.005248073000075, -30.065074237999966 ] ] } },
{ "type": "Feature", "properties": { "CAST(concat('2000-', lpad(CAST(\"month\" AS VARCHAR), 2, '0'), '-01 00:00:00') AS TIMESTAMP)": "2000-05-01T00:00:00", "direction": 5.6999399447789756, "line name": "MOR-TS 81", "index": 2, "capacity": "132", "weather longitude": 116.0, "weather latitude": -30.5, "latitude": -30.5, "longitude": 116.0, "avg temperature (deg C)": 14.278884510025478, "std dev temperature": 5.0473222426663575, "avg u10": -2.1433628398005062, "avg v10": -0.46099178244521249, "avg wind speed": 3.6029389645491881 }, "geometry": { "type": "LineString", "coordinates": [ [ 116.027286272000083, -30.546848825999973 ], [ 116.006344639000076, -30.337038494999945 ] ] } },
{ "type": "Feature", "properties": { "CAST(concat('2000-', lpad(CAST(\"month\" AS VARCHAR), 2, '0'), '-01 00:00:00') AS TIMESTAMP)": "2000-01-01T00:00:00", "direction": 82.59286729294638, "line name": "MOR-TS 81", "index": 8, "capacity": "132", "weather longitude": 115.75, "weather latitude": -29.5, "latitude": -29.5, "longitude": 115.75, "avg temperature (deg C)": 25.593690265846931, "std dev temperature": 5.4470412084531254, "avg u10": -1.8576980365367322, "avg v10": 1.4971388935812437, "avg wind speed": 4.5039604217983653 }, "geometry": { "type": "LineString", "coordinates": [ [ 115.803076840000017, -29.522524983999972 ], [ 115.768973667000068, -29.518091437999942 ] ] } },
{ "type": "Feature", "properties": { "CAST(concat('2000-', lpad(CAST(\"month\" AS VARCHAR), 2, '0'), '-01 00:00:00') AS TIMESTAMP)": "2000-12-01T00:00:00", "direction": 82.59286729294638, "line name": "MOR-TS 81", "index": 8, "capacity": "132", "weather longitude": 115.75, "weather latitude": -29.5, "latitude": -29.5, "longitude": 115.75, "avg temperature (deg C)": 26.221073503201865, "std dev temperature": 6.8853461750706169, "avg u10": -1.2794656248786107, "avg v10": 3.1293609947858125, "avg wind speed": 4.883948326817622 }, "geometry": { "type": "LineString", "coordinates": [ [ 115.803076840000017, -29.522524983999972 ], [ 115.768973667000068, -29.518091437999942 ] ] } },
{ "type": "Feature", "properties": { "CAST(concat('2000-', lpad(CAST(\"month\" AS VARCHAR), 2, '0'), '-01 00:00:00') AS TIMESTAMP)": "2000-01-01T00:00:00", "direction": 65.056578578683059, "line name": "MOR-TS 81", "index": 7, "capacity": "132", "weather longitude": 115.75, "weather latitude": -29.5, "latitude": -29.5, "longitude": 115.75, "avg temperature (deg C)": 25.593690265846931, "std dev temperature": 5.4470412084531254, "avg u10": -1.8576980365367322, "avg v10": 1.4971388935812437, "avg wind speed": 4.5039604217983653 }, "geometry": { "type": "LineString", "coordinates": [ [ 115.856799913000032, -29.547511907999933 ], [ 115.803076840000017, -29.522524983999972 ] ] } },
{ "type": "Feature", "properties": { "CAST(concat('2000-', lpad(CAST(\"month\" AS VARCHAR), 2, '0'), '-01 00:00:00') AS TIMESTAMP)": "2000-12-01T00:00:00", "direction": 65.056578578683059, "line name": "MOR-TS 81", "index": 7, "capacity": "132", "weather longitude": 115.75, "weather latitude": -29.5, "latitude": -29.5, "longitude": 115.75, "avg temperature (deg C)": 26.221073503201865, "std dev temperature": 6.8853461750706169, "avg u10": -1.2794656248786107, "avg v10": 3.1293609947858125, "avg wind speed": 4.883948326817622 }, "geometry": { "type": "LineString", "coordinates": [ [ 115.856799913000032, -29.547511907999933 ], [ 115.803076840000017, -29.522524983999972 ] ] } }
]
}
